addr_full,brand,brand_wikidata,city,country,email,extras,facebook,housenumber,image,lat,located_in,located_in_wikidata,lon,name,nsi_id,opening_hours,phone,postcode,ref,state,street,street_address,twitter,website
,Hermes,Q843887,Moscow,RU,magasin.stoleshnikov@hermes.com,"{'@spider': 'hermes', 'shop': 'clothes'}",,,,55.762757,,,37.614557,Hermès,hermes-3937bd,,+7 495 933-28-33,107 031,0DOS20DS,,,,,https://www.hermes.com/uk/en/find-store/russia/moscow/hermes-moscow-stoleshnikov-0DOS20DS/
,Hermes,Q843887,Seoul,KR,hyundai@hermes.com,"{'@spider': 'hermes', 'shop': 'clothes'}",,,,37.527278,,,127.027463,Hermès,hermes-3937bd,,+82 2-514-8822,06001,0DRRJ2SE,,,,,https://www.hermes.com/uk/en/find-store/south-korea/seoul/hermes-hyundai-apgujeong-main-0DRRJ2SE/
,Hermes,Q843887,Nice,FR,hermes-nice@wanadoo.fr,"{'@spider': 'hermes', 'shop': 'clothes'}",,,,43.696773,,,7.268562,Hermès,hermes-3937bd,,+33 4 93 87 75 03,06000,0HF9T05X,,,,,https://www.hermes.com/uk/en/find-store/france/nice/hermes-nice-0HF9T05X/
,Hermes,Q843887,SHANGHAI,CN,service.china@hermes.com,"{'@spider': 'hermes', 'shop': 'clothes'}",,,,31.237133,,,121.501279,Hermès,hermes-3937bd,,+86 21 5012 1788,"200120,",0MP6BNMB,,,,,https://www.hermes.com/uk/en/find-store/china/shanghai/shanghai-ifc-store-0MP6BNMB/
,Hermes,Q843887,Roissy-en-France,FR,,"{'@spider': 'hermes', 'shop': 'clothes'}",,,,49.004003,,,2.570665,Hermès,hermes-3937bd,,+33 1 74 25 42 17,95700,0U7T2UK4,,,,,https://www.hermes.com/uk/en/find-store/france/roissy-en-france/hermes-paris-roissy-cdg-airport-terminal-2-ac-0U7T2UK4/
,Hermes,Q843887,GUANGZHOU,CN,service.china@hermes.com,"{'@spider': 'hermes', 'shop': 'clothes'}",,,,23.133978,,,113.33237,Hermès,hermes-3937bd,,+86 20 3868 2511,"510620,",0WN6562Z,,,,,https://www.hermes.com/uk/en/find-store/china/guangzhou/guangzhou-taikoo-hui-store-0WN6562Z/
,Hermes,Q843887,CHANGSHA,CN,,"{'@spider': 'hermes', 'shop': 'clothes'}",,,,28.192524,,,112.980165,Hermès,hermes-3937bd,,+86 731 8211 5688,"410005, ",1ADWOIG4,,,,,https://www.hermes.com/uk/en/find-store/china/changsha/changsha-ifs-store-1ADWOIG4/
,Hermes,Q843887,Roma,IT,rome@hermes.it,"{'@spider': 'hermes', 'shop': 'clothes'}",,,,41.90548,,,12.480181,Hermès,hermes-3937bd,,+39 06 679 1882,00187,1C0WQFOC,,,,,https://www.hermes.com/uk/en/find-store/italy/roma/hermes-rome-1C0WQFOC/
,Hermes,Q843887,Osaka,JP,,"{'@spider': 'hermes', 'shop': 'clothes'}",,,,34.70321,,,135.49849,Hermès,hermes-3937bd,,+81 6-6361-1381,530-8350,1EDYEHJ6,,,,,https://www.hermes.com/uk/en/find-store/japan/osaka/hermes-shoe-store-at-hankyu-umeda-department-store-1EDYEHJ6/
,Hermes,Q843887,Fukuoka,JP,,"{'@spider': 'hermes', 'shop': 'clothes'}",,,,33.589343,,,130.420368,Hermès,hermes-3937bd,,+81 92-461-1381,812-0012,1HGOLL0F,,,,,https://www.hermes.com/uk/en/find-store/japan/fukuoka/hermes-hakata-hankyu-1HGOLL0F/
,Hermes,Q843887,"Richmond, BC",CA,,"{'@spider': 'hermes', 'shop': 'clothes'}",,,,49.196744,,,-123.181251,Hermès,hermes-3937bd,,+1 604-273-1708;ext:1009,V7B OA4,1NO59GZE,,,,,https://www.hermes.com/uk/en/find-store/canada/richmond-bc/hermes-vancouver-international-airport-1NO59GZE/
,Hermes,Q843887,Salzburg,AT,hermes@resmann.at,"{'@spider': 'hermes', 'shop': 'clothes'}",,,,47.79944,,,13.044884,Hermès,hermes-3937bd,,+43 662 84662126,5020 ,1OC294ZZ,,,,,https://www.hermes.com/uk/en/find-store/austria/salzburg/hermes-salzburg-1OC294ZZ/
,Hermes,Q843887,Hanoï,VN,hermes-store@tamsonfashion.com,"{'@spider': 'hermes', 'shop': 'clothes'}",,,,21.025654,,,105.85587,Hermès,hermes-3937bd,,+84 24 3936 9205,,1T31NR6M,,,,,https://www.hermes.com/uk/en/find-store/vietnam/hanoi/hermes-hanoi-1T31NR6M/
,Hermes,Q843887,Dijon,FR,,"{'@spider': 'hermes', 'shop': 'clothes'}",,,,47.323493,,,5.03772,Hermès,hermes-3937bd,,+33 3 80 30 59 01,21000,1X8XT893,,,,,https://www.hermes.com/uk/en/find-store/france/dijon/hermes-dijon-1X8XT893/
,Hermes,Q843887,Firenze,IT,florence@hermes.it,"{'@spider': 'hermes', 'shop': 'clothes'}",,,,43.772581,,,11.251225,Hermès,hermes-3937bd,,+39 055 238 1004,50123,1YCF22A7,,,,,https://www.hermes.com/uk/en/find-store/italy/firenze/hermes-florence-1YCF22A7/
,Hermes,Q843887,Singapore,SG,,"{'@spider': 'hermes', 'shop': 'clothes'}",,,,1.283737,,,103.859192,Hermès,hermes-3937bd,,+65 6688 7111,018972,23WZGTIV,,,,,https://www.hermes.com/uk/en/find-store/singapore/singapore/hermes-singapore-marina-bay-sands-23WZGTIV/
,Hermes,Q843887,Seoul,KR,,"{'@spider': 'hermes', 'shop': 'clothes'}",,,,37.513445,,,127.104161,Hermès,hermes-3937bd,,+82 2-3213-2130,05551,2AELNQQH,,,,,https://www.hermes.com/uk/en/find-store/south-korea/seoul/hermes-lotte-world-tower-2AELNQQH/
,Hermes,Q843887,Seoul,KR,magasin.lseoul@hermes.com,"{'@spider': 'hermes', 'shop': 'clothes'}",,,,37.564275,,,126.981488,Hermès,hermes-3937bd,,+82 2-759-6754,04533,2B2SXQH1,,,,,https://www.hermes.com/uk/en/find-store/south-korea/seoul/hermes-seoul-lotte-hotel-duty-free-store-2B2SXQH1/
,Hermes,Q843887,Tokyo,JP,,"{'@spider': 'hermes', 'shop': 'clothes'}",,,,35.691802,,,139.70521,Hermès,hermes-3937bd,,+81 3-6380-5276,160-0022,2GAML3JJ,,,,,https://www.hermes.com/uk/en/find-store/japan/tokyo/shinjuku-isetan-hermes-in-colors-2GAML3JJ/
,Hermes,Q843887,QINGDAO,CN,service.china@hermes.com,"{'@spider': 'hermes', 'shop': 'clothes'}",,,,36.060816,,,120.396008,Hermès,hermes-3937bd,,+86 532 6678 8128,"266071,",2L0H1TNH,,,,,https://www.hermes.com/uk/en/find-store/china/qingdao/qingdao-hisense-store-2L0H1TNH/
,Hermes,Q843887,Almaty,KZ,,"{'@spider': 'hermes', 'shop': 'clothes'}",,,,43.250153,,,76.949444,Hermès,hermes-3937bd,,+7 727 399 0088,050000,2WGLS57V,,,,,https://www.hermes.com/uk/en/find-store/kazakhstan/almaty/hermes-almaty-2WGLS57V/
,Hermes,Q843887,London,GB,london.selfridges@hermes.com,"{'@spider': 'hermes', 'shop': 'clothes'}",,,,51.514152,,,-0.152692,Hermès,hermes-3937bd,,+44 20 7318 7791,W1A 1AB,334JA036,,,,,https://www.hermes.com/uk/en/find-store/great-britain/london/hermes-london-selfridges-334JA036/
,Hermes,Q843887,Tours,FR,hermestours@orange.fr,"{'@spider': 'hermes', 'shop': 'clothes'}",,,,47.394239,,,0.684738,Hermès,hermes-3937bd,,+33 2 47 05 73 25,37000 ,3PN57UTA,,,,,https://www.hermes.com/uk/en/find-store/france/tours/hermes-tours-3PN57UTA/
,Hermes,Q843887,Taipei,"Taiwan, China",,"{'@spider': 'hermes', 'shop': 'clothes'}",,,,25.067566,,,121.552699,Hermès,hermes-3937bd,,+886 2 2712 0699,105008,3U63U6K1,,,,,https://www.hermes.com/uk/en/find-store/taiwan-china/taipei/hermes-taipei-songshan-airport-3U63U6K1/
,Hermes,Q843887,Tsim Sha Tsui,HK,hongkong.harbourcity@hermes.com,"{'@spider': 'hermes', 'shop': 'clothes'}",,,,22.298545,,,114.168532,Hermès,hermes-3937bd,,+852 2866 3118,,3WA4Y8WC,,,,,https://www.hermes.com/uk/en/find-store/hong-kong/tsim-sha-tsui/hermes-harbour-city-3WA4Y8WC/
,Hermes,Q843887,New York,US,,"{'@spider': 'hermes', 'shop': 'clothes'}",,,,40.766019,,,-73.969952,Hermès,hermes-3937bd,,+1 212-751-3181,10065,4K9DRJUY,,,,,https://www.hermes.com/uk/en/find-store/united-states/new-york/hermes-maison-madison-4K9DRJUY/
,Hermes,Q843887,Miyagi,JP,,"{'@spider': 'hermes', 'shop': 'clothes'}",,,,38.260398,,,140.872415,Hermès,hermes-3937bd,,+81 22-261-5111,980-8652,4KUOUG8T,,,,,https://www.hermes.com/uk/en/find-store/japan/miyagi/hermes-fujisaki-4KUOUG8T/
,Hermes,Q843887,Milan,IT,,"{'@spider': 'hermes', 'shop': 'clothes'}",,,,45.471026,,,9.193094,Hermès,hermes-3937bd,,+39 02 7600 3495,20121 ,4PU2TZVM,,,,,https://www.hermes.com/uk/en/find-store/italy/milan/hermes-milan-showroom-collections-maison-4PU2TZVM/
,Hermes,Q843887,Jakarta,ID,gh@masarigroup.com,"{'@spider': 'hermes', 'shop': 'clothes'}",,,,-6.194222,,,106.826687,Hermès,hermes-3937bd,,+62 21 29923998,10350,4QTMJ7FU,,,,,https://www.hermes.com/uk/en/find-store/indonesia/jakarta/hermes-jakarta-grand-hyatt-4QTMJ7FU/
,Hermes,Q843887,Zurich,CH,,"{'@spider': 'hermes', 'shop': 'clothes'}",,,,47.458216,,,8.555476,Hermès,hermes-3937bd,,+41 79 409 68 95,8058,4U4GGFT8,,,,,https://www.hermes.com/uk/en/find-store/switzerland/zurich/hermes-zurich-kloten-airport-4U4GGFT8/
,Hermes,Q843887,Tokyo,JP,,"{'@spider': 'hermes', 'shop': 'clothes'}",,,,35.614558,,,139.626466,Hermès,hermes-3937bd,,+81 3-3709-3111,158-8701,59H74F8T,,,,,https://www.hermes.com/uk/en/find-store/japan/tokyo/hermes-tamagawa-takashimaya-59H74F8T/
,Hermes,Q843887,Garden City,US,,"{'@spider': 'hermes', 'shop': 'clothes'}",,,,40.738248,,,-73.614237,Hermès,hermes-3937bd,,+1 516-248-0367,11530,59QZ434F,,,,,https://www.hermes.com/uk/en/find-store/united-states/garden-city/hermes-roosevelt-field-59QZ434F/
,Hermes,Q843887,Tokyo,JP,,"{'@spider': 'hermes', 'shop': 'clothes'}",,,,35.728539,,,139.711855,Hermès,hermes-3937bd,,+81 3-5949-2624,171-8569,59ZSZEBN,,,,,https://www.hermes.com/uk/en/find-store/japan/tokyo/hermes-ikebukuro-seibu-59ZSZEBN/
,Hermes,Q843887,"Calgary, Alberta",CA,mcalgary@ca.hermes.com,"{'@spider': 'hermes', 'shop': 'clothes'}",,,,51.041853,,,-114.072356,Hermès,hermes-3937bd,,+1 403-767-9100,Canada T2P 4H9 ,5D7KG7C9,,,,,https://www.hermes.com/uk/en/find-store/canada/calgary-alberta/hermes-calgary-5D7KG7C9/
,Hermes,Q843887,Abu Dhabi,dh,hermes_service@almana.com,"{'@spider': 'hermes', 'shop': 'clothes'}",,,,24.458705,,,54.321765,Hermès,hermes-3937bd,,800 HERMES,P.O. Box 41948,5DD05H1N,,,,,https://www.hermes.com/uk/en/find-store/united-arab-emirates/abu-dhabi/hermes-etihad-towers-5DD05H1N/
,Hermes,Q843887,Houston,US,,"{'@spider': 'hermes', 'shop': 'clothes'}",,,,29.742871,,,-95.453424,Hermès,hermes-3937bd,,+1 713-623-2177,77027,5HWTEY0C,,,,,https://www.hermes.com/uk/en/find-store/united-states/houston/hermes-houston-5HWTEY0C/
,Hermes,Q843887,Brussels,BE,bruxelles@hermes.com,"{'@spider': 'hermes', 'shop': 'clothes'}",,,,50.836867,,,4.356569,Hermès,hermes-3937bd,,+32 2 511 20 62,1000,5I3O4MTG,,,,,https://www.hermes.com/uk/en/find-store/belgium/brussels/hermes-brussels-5I3O4MTG/
,Hermes,Q843887,London,GB,london.harrods@hermes.com,"{'@spider': 'hermes', 'shop': 'clothes'}",,,,51.499581,,,-0.16321,Hermès,hermes-3937bd,,+44 20 7225 5609,SW1X 7XL,5IB3WL6H,,,,,https://www.hermes.com/uk/en/find-store/great-britain/london/hermes-london-harrods-5IB3WL6H/
,Hermes,Q843887,Marseille,FR,marseille@hermes.com,"{'@spider': 'hermes', 'shop': 'clothes'}",,,,43.292599,,,5.378141,Hermès,hermes-3937bd,,+33 4 96 17 61 12,13001,5IDFP63K,,,,,https://www.hermes.com/uk/en/find-store/france/marseille/hermes-marseille-5IDFP63K/
,Hermes,Q843887,"Tumon, Guam",GU,,"{'@spider': 'hermes', 'shop': 'clothes'}",,,,13.514234,,,144.806535,Hermès,hermes-3937bd,,+1 671-648-1244;5,GU 96913,5K3UYOWL,,,,,https://www.hermes.com/uk/en/find-store/guam/tumon-guam/hermes-guam-5K3UYOWL/
,Hermes,Q843887,Osaka,JP,,"{'@spider': 'hermes', 'shop': 'clothes'}",,,,,,,,Hermès,hermes-3937bd,,+81 72-456-6539,549-0001,5KP92JUC,,,,,https://www.hermes.com/uk/en/find-store/japan/osaka/hermes-osaka-kansai-international-airport-north-wing-5KP92JUC/
,Hermes,Q843887,Tokyo,JP,,"{'@spider': 'hermes', 'shop': 'clothes'}",,,,35.685634,,,139.773419,Hermès,hermes-3937bd,,+81 3-3274-8906,103-8001,5OFAUZ0Y,,,,,https://www.hermes.com/uk/en/find-store/japan/tokyo/hermes-nihombashi-mitsukoshi-5OFAUZ0Y/
,Hermes,Q843887,Taipei,"Taiwan, China",taipei.bellavita@hermes.com,"{'@spider': 'hermes', 'shop': 'clothes'}",,,,25.039244,,,121.568183,Hermès,hermes-3937bd,,+886 2 8786 7007,110,5W6NXTOP,,,,,https://www.hermes.com/uk/en/find-store/taiwan-china/taipei/hermes-taipei-bellavita-5W6NXTOP/
,Hermes,Q843887,BEIJING,CN,service.china@hermes.com,"{'@spider': 'hermes', 'shop': 'clothes'}",,,,39.90964,,,116.479003,Hermès,hermes-3937bd,,+86 10 8588 8278,"100025,",64P6UWB2,,,,,https://www.hermes.com/uk/en/find-store/china/beijing/beijing-skp-store-64P6UWB2/
,Hermes,Q843887,HARBIN,CN,service.china@hermes.com,"{'@spider': 'hermes', 'shop': 'clothes'}",,,,45.76261,,,126.60192,Hermès,hermes-3937bd,,+86 451 5118 1688,"150016,",65I28GYK,,,,,https://www.hermes.com/uk/en/find-store/china/harbin/harbin-charter-store-65I28GYK/
,Hermes,Q843887,Denver,US,,"{'@spider': 'hermes', 'shop': 'clothes'}",,,,39.716931,,,-104.953263,Hermès,hermes-3937bd,,+1 303-388-0700,80206,6DIY191K,,,,,https://www.hermes.com/uk/en/find-store/united-states/denver/hermes-denver-6DIY191K/
,Hermes,Q843887,México,MX,magasin.polanco@sa.hermes.com,"{'@spider': 'hermes', 'shop': 'clothes'}",,,,19.435662,,,-99.202111,Hermès,hermes-3937bd,,+52 55 5280 8076,11570,6DTUYNU8,,,,,https://www.hermes.com/uk/en/find-store/mexico/mexico/hermes-mexico-polanco-6DTUYNU8/
,Hermes,Q843887,Lausanne,CH,lausanne@hermes.ch,"{'@spider': 'hermes', 'shop': 'clothes'}",,,,46.519908,,,6.633914,Hermès,hermes-3937bd,,+41 21 312 33 22,1003,6HUKMTMV,,,,,https://www.hermes.com/uk/en/find-store/switzerland/lausanne/hermes-lausanne-6HUKMTMV/
,Hermes,Q843887,Dublin,IE,dublin@hermes.com,"{'@spider': 'hermes', 'shop': 'clothes'}",,,,53.342391,,,-6.259915,Hermès,hermes-3937bd,,+353 1 617 1165,2,6J6SN2RE,,,,,https://www.hermes.com/uk/en/find-store/ireland/dublin/hermes-dublin-6J6SN2RE/
,Hermes,Q843887,Honolulu,US,,"{'@spider': 'hermes', 'shop': 'clothes'}",,,,21.291298,,,-157.843379,Hermès,hermes-3937bd,,+1 808-947-3789,96814,6V384SU6,,,,,https://www.hermes.com/uk/en/find-store/united-states/honolulu/hermes-ala-moana-center-6V384SU6/
,Hermes,Q843887,Central,HK,,"{'@spider': 'hermes', 'shop': 'clothes'}",,,,22.281226,,,114.159263,Hermès,hermes-3937bd,,+852 2525 5900,,6WCFCF0P,,,,,https://www.hermes.com/uk/en/find-store/hong-kong/central/hermes-landmark-prince-s-6WCFCF0P/
,Hermes,Q843887,Bangkok,TH,magasin.siamparagon@hermes.com,"{'@spider': 'hermes', 'shop': 'clothes'}",,,,13.74688,,,100.533702,Hermès,hermes-3937bd,,+66 (0) 2129 4800-1,10330,6XQW927F,,,,,https://www.hermes.com/uk/en/find-store/thailand/bangkok/hermes-siam-paragon-bangkok-6XQW927F/
,Hermes,Q843887,Seoul,KR,magasin.sgangnam@hermes.com,"{'@spider': 'hermes', 'shop': 'clothes'}",,,,37.503901,,,127.003259,Hermès,hermes-3937bd,,+82 2-3479-1243,06546,747IIOPS,,,,,https://www.hermes.com/uk/en/find-store/south-korea/seoul/hermes-shinsegae-gangnam-747IIOPS/
,Hermes,Q843887,Amsterdam,NL,magasin.amsterdam_bijenkorf@hermes.com,"{'@spider': 'hermes', 'shop': 'clothes'}",,,,52.37348,,,4.893984,Hermès,hermes-3937bd,,+31 88 245 9176,1012 JS,7AZH98O9,,,,,https://www.hermes.com/uk/en/find-store/netherlands/amsterdam/hermes-amsterdam-de-bijenkorf-7AZH98O9/
,Hermes,Q843887,Zurich,CH,zurich@hermes.ch,"{'@spider': 'hermes', 'shop': 'clothes'}",,,,47.37088,,,8.538531,Hermès,hermes-3937bd,,+41 44 211 41 77,8001,83YCIM3A,,,,,https://www.hermes.com/uk/en/find-store/switzerland/zurich/hermes-zurich-bahnhofstrasse-83YCIM3A/
,Hermes,Q843887,Moscow,RU,magasin.gum@hermes.com,"{'@spider': 'hermes', 'shop': 'clothes'}",,,,55.754633,,,37.620878,Hermès,hermes-3937bd,,+7 495 620-30-19,109 012,8B15UUTB,,,,,https://www.hermes.com/uk/en/find-store/russia/moscow/hermes-moscow-gum-8B15UUTB/
,Hermes,Q843887,Miami,US,,"{'@spider': 'hermes', 'shop': 'clothes'}",,,,25.81297,,,-80.192149,Hermès,hermes-3937bd,,+1 305-868-0118,33137,8BRJN7R4,,,,,https://www.hermes.com/uk/en/find-store/united-states/miami/hermes-miami-8BRJN7R4/
,Hermes,Q843887,Jakarta,ID,pp@masarigroup.com,"{'@spider': 'hermes', 'shop': 'clothes'}",,,,-6.217721,,,106.811469,Hermès,hermes-3937bd,,+62 21 51402798,,8H8OLFMH,,,,,https://www.hermes.com/uk/en/find-store/indonesia/jakarta/hermes-jakarta-pacific-place-8H8OLFMH/
,Hermes,Q843887,Singapore,SG,,"{'@spider': 'hermes', 'shop': 'clothes'}",,,,1.305315,,,103.830545,Hermès,hermes-3937bd,,+65 6738 9807,238881,8JC2PQ2X,,,,,https://www.hermes.com/uk/en/find-store/singapore/singapore/hermes-singapore-liat-towers-8JC2PQ2X/
,Hermes,Q843887,Barcelona,ES,barcelone.paseodegracia@hermes.com,"{'@spider': 'hermes', 'shop': 'clothes'}",,,,41.394121,,,2.161788,Hermès,hermes-3937bd,,+34 934 88 05 40,08008,8KAYAI43,,,,,https://www.hermes.com/uk/en/find-store/spain/barcelona/hermes-paseo-de-gracia-81-8KAYAI43/
,Hermes,Q843887,Zapopan,MX,,"{'@spider': 'hermes', 'shop': 'clothes'}",,,,20.709155,,,-103.412633,Hermès,hermes-3937bd,,+52 33 3611 0645,45116 ,8KGGSOHM,,,,,https://www.hermes.com/uk/en/find-store/mexico/zapopan/hermes-guadalajara-8KGGSOHM/
,Hermes,Q843887,Istanbul,TR,,"{'@spider': 'hermes', 'shop': 'clothes'}",,,,41.110042,,,29.03244,Hermès,hermes-3937bd,,+90 212 345 61 64,,8SZMA17O,,,,,https://www.hermes.com/uk/en/find-store/turkey/istanbul/hermesmatic-istinye-8SZMA17O/
,Hermes,Q843887,Aichi,JP,,"{'@spider': 'hermes', 'shop': 'clothes'}",,,,35.165279,,,136.907906,Hermès,hermes-3937bd,,+81 52-264-2030,460-8430,966IY23Q,,,,,https://www.hermes.com/uk/en/find-store/japan/aichi/hermes-nagoya-matsuzakaya-966IY23Q/
,Hermes,Q843887,Naples,IT,naples@hermes.it,"{'@spider': 'hermes', 'shop': 'clothes'}",,,,40.836005,,,14.241193,Hermès,hermes-3937bd,,+39 081 420 7054,80121,9HQDW1LH,,,,,https://www.hermes.com/uk/en/find-store/italy/naples/hermes-naples-9HQDW1LH/
,Hermes,Q843887,Beijing,CN,,"{'@spider': 'hermes', 'shop': 'clothes'}",,,,40.079857,,,116.603112,Hermès,hermes-3937bd,,+86 10 6453 2377,200030,9HW2YAV0,,,,,https://www.hermes.com/uk/en/find-store/china/beijing/hermes-beijing-capital-international-airport-t3-9HW2YAV0/
,Hermes,Q843887,"Montreal, Quebec ",CA,mmontreal@ca.hermes.com,"{'@spider': 'hermes', 'shop': 'clothes'}",,,,45.497823,,,-73.575303,Hermès,hermes-3937bd,,+1 514-842-3387,H3G 1P7,9HZKXPK8,,,,,https://www.hermes.com/uk/en/find-store/canada/montreal-quebec/hermes-montreal-9HZKXPK8/
,Hermes,Q843887,Costa Mesa,US,,"{'@spider': 'hermes', 'shop': 'clothes'}",,,,33.68892,,,-117.88779,Hermès,hermes-3937bd,,+1 714-437-1725,92626,9J8KJK51,,,,,https://www.hermes.com/uk/en/find-store/united-states/costa-mesa/hermes-costa-mesa-9J8KJK51/
,Hermes,Q843887,Deauville,FR,deauville@hermes.com,"{'@spider': 'hermes', 'shop': 'clothes'}",,,,49.358918,,,0.070557,Hermès,hermes-3937bd,,+33 2 31 88 04 42,14800,9P316MBC,,,,,https://www.hermes.com/uk/en/find-store/france/deauville/hermes-deauville-9P316MBC/
,Hermes,Q843887,HANGZHOU,CN,service.china@hermes.com,"{'@spider': 'hermes', 'shop': 'clothes'}",,,,30.271829,,,120.160013,Hermès,hermes-3937bd,,+86 571 8510 1980,"310006,",9R6ONHBO,,,,,https://www.hermes.com/uk/en/find-store/china/hangzhou/hangzhou-tower-store-9R6ONHBO/
,Hermes,Q843887,"Canada, V6Z 2P1 ",CA,mvancouver@ca.hermes.com,"{'@spider': 'hermes', 'shop': 'clothes'}",,,,49.283942,,,-123.122215,Hermès,hermes-3937bd,,+1 604-681-9965,"Vancouver, British Columbia ",9S0HQYS7,,,,,https://www.hermes.com/uk/en/find-store/canada/canada-v6z-2p1/hermes-vancouver-burrard-9S0HQYS7/
,Hermes,Q843887,XIAMEN,CN,,"{'@spider': 'hermes', 'shop': 'clothes'}",,,,24.472597,,,118.111209,Hermès,hermes-3937bd,,+86 592 582 5928,"361000,",9TXGKMWA,,,,,https://www.hermes.com/uk/en/find-store/china/xiamen/xiamen-mixc-store-9TXGKMWA/
,Hermes,Q843887,Seoul,KR,,"{'@spider': 'hermes', 'shop': 'clothes'}",,,,37.560308,,,126.980831,Hermès,hermes-3937bd,,0082 2 6370 4369,04530,9W7T0W0Y,,,,,https://www.hermes.com/uk/en/find-store/south-korea/seoul/hermes-seoul-shinsegae-duty-free-store-9W7T0W0Y/
,Hermes,Q843887,Copenhagen,DK,magasin.copenhague@hermes.com,"{'@spider': 'hermes', 'shop': 'clothes'}",,,,55.678432,,,12.57935,Hermès,hermes-3937bd,,+45 33 11 24 24,1200,9WQ3FKJ1,,,,,https://www.hermes.com/uk/en/find-store/denmark/copenhagen/hermes-copenhagen-hojbro-plads-9WQ3FKJ1/
,Hermes,Q843887,Gstaad,CH,magasin.gstaad@hermes.ch,"{'@spider': 'hermes', 'shop': 'clothes'}",,,,46.472927,,,7.28637,Hermès,hermes-3937bd,,+41 33 744 43 21,3780 ,A0NCPKL1,,,,,https://www.hermes.com/uk/en/find-store/switzerland/gstaad/hermes-gstaad-A0NCPKL1/
,Hermes,Q843887,HANGZHOU,CN,service.china@hermes.com,"{'@spider': 'hermes', 'shop': 'clothes'}",,,,30.253623,,,120.161761,Hermès,hermes-3937bd,,+86 571 8715 8330,"310006,",A1XQPB90,,,,,https://www.hermes.com/uk/en/find-store/china/hangzhou/hangzhou-hubin-yintai-store-A1XQPB90/
,Hermes,Q843887,Kyoto,JP,,"{'@spider': 'hermes', 'shop': 'clothes'}",,,,35.003093,,,135.768457,Hermès,hermes-3937bd,,+81 75-221-8811,600-8520,A2T3JHTF,,,,,https://www.hermes.com/uk/en/find-store/japan/kyoto/hermes-kyoto-takashimaya-A2T3JHTF/
,Hermes,Q843887,Lugano,CH,magasin.lugano@hermes.ch,"{'@spider': 'hermes', 'shop': 'clothes'}",,,,46.003379,,,8.95014,Hermès,hermes-3937bd,,+41 91 914 92 20,6900,AA0C922V,,,,,https://www.hermes.com/uk/en/find-store/switzerland/lugano/hermes-lugano-AA0C922V/
,Hermes,Q843887,Seoul,KR,,"{'@spider': 'hermes', 'shop': 'clothes'}",,,,37.449075,,,126.45161,Hermès,hermes-3937bd,,0082 32 743 4720,22382,AAU9YJPB,,,,,https://www.hermes.com/uk/en/find-store/south-korea/seoul/hermes-incheon-international-airport-terminal-2-AAU9YJPB/
,Hermes,Q843887,Cotai,MO,,"{'@spider': 'hermes', 'shop': 'clothes'}",,,,22.149828,,,113.554385,Hermès,hermes-3937bd,,+853 2822 9978,,AKLXXS48,,,,,https://www.hermes.com/uk/en/find-store/macau/cotai/hermes-galaxy-macau-AKLXXS48/
,Hermes,Q843887,Biarritz,FR,biarritz@hermes.com,"{'@spider': 'hermes', 'shop': 'clothes'}",,,,43.484258,,,-1.557725,Hermès,hermes-3937bd,,+33 5 59 24 00 64,64200,AODJV9PI,,,,,https://www.hermes.com/uk/en/find-store/france/biarritz/hermes-biarritz-AODJV9PI/
,Hermes,Q843887, Sarıyer Istanbul ,TR,magasin.istinyepark@hermes.com,"{'@spider': 'hermes', 'shop': 'clothes'}",,,,41.111685,,,29.040174,Hermès,hermes-3937bd,,+90 212 345 61 64,34460,APPAKU9U,,,,,https://www.hermes.com/uk/en/find-store/turkey/sariyer-istanbul/hermes-istanbul-istinye-APPAKU9U/
,Hermes,Q843887,XIAN,CN,,"{'@spider': 'hermes', 'shop': 'clothes'}",,,,34.25987,,,108.953854,Hermès,hermes-3937bd,,+86 29 8369 9001,"710000,",AROMNNIG,,,,,https://www.hermes.com/uk/en/find-store/china/xian/xian-skp-store-AROMNNIG/
,Hermes,Q843887,Berlin,DE,magasin.kudamm@hermes.com,"{'@spider': 'hermes', 'shop': 'clothes'}",,,,52.501032,,,13.314042,Hermès,hermes-3937bd,,+49 30 32708375,10707,B1U4BEMX,,,,,https://www.hermes.com/uk/en/find-store/germany/berlin/hermes-berlin-kudamm-B1U4BEMX/
,Hermes,Q843887,Tokyo,JP,,"{'@spider': 'hermes', 'shop': 'clothes'}",,,,35.67725,,,139.762239,Hermès,hermes-3937bd,,+81 3-3213-8041,100-0005,B3ATXBVQ,,,,,https://www.hermes.com/uk/en/find-store/japan/tokyo/hermes-marunouchi-B3ATXBVQ/
,Hermes,Q843887,Capri,IT,capri@hermes.it,"{'@spider': 'hermes', 'shop': 'clothes'}",,,,40.549805,,,14.244534,Hermès,hermes-3937bd,,+39 081 837 8957,80073,B42Z9VRD,,,,,https://www.hermes.com/uk/en/find-store/italy/capri/hermes-capri-B42Z9VRD/
,Hermes,Q843887,Daegu,KR,,"{'@spider': 'hermes', 'shop': 'clothes'}",,,,35.877812,,,128.628453,Hermès,hermes-3937bd,,+82 53-6616-5503,41229,B4WYD36C,,,,,https://www.hermes.com/uk/en/find-store/south-korea/daegu/hermes-shinsegae-daegu-B4WYD36C/
,Hermes,Q843887,Rio de Janeiro ,BR,,"{'@spider': 'hermes', 'shop': 'clothes'}",,,,-22.982567,,,-43.209026,Hermès,hermes-3937bd,,+55 21 3738-3277,22421-010,B6EJHEQS,,,,,https://www.hermes.com/uk/en/find-store/brazil/rio-de-janeiro/hermes-rio-de-janeiro-B6EJHEQS/
,Hermes,Q843887,"Cancún, Quintana Roo",MX,,"{'@spider': 'hermes', 'shop': 'clothes'}",,,,21.102269,,,-86.765314,Hermès,hermes-3937bd,,+52 998 688 5560,77500,BEBF2GCO,,,,,https://www.hermes.com/uk/en/find-store/mexico/cancun-quintana-roo/hermes-cancun-BEBF2GCO/
,Hermes,Q843887,Istanbul,TR,magasin.istanbul@hermes.com,"{'@spider': 'hermes', 'shop': 'clothes'}",,,,41.052431,,,28.999537,Hermès,hermes-3937bd,,+90 212 241 27 78,,BLY9X2Q8,,,,,https://www.hermes.com/uk/en/find-store/turkey/istanbul/hermes-istanbul-nisantasi-BLY9X2Q8/
,Hermes,Q843887,Hokkaido,JP,,"{'@spider': 'hermes', 'shop': 'clothes'}",,,,43.067391,,,141.349795,Hermès,hermes-3937bd,,+81 11-828-1111,060-0005,BMCFPEV0,,,,,https://www.hermes.com/uk/en/find-store/japan/hokkaido/hermes-sapporo-daimaru-BMCFPEV0/
,Hermes,Q843887,Aichi,JP,,"{'@spider': 'hermes', 'shop': 'clothes'}",,,,35.167993,,,136.907304,Hermès,hermes-3937bd,,+81 52-252-1111,460-8669,BNNSA1E1,,,,,https://www.hermes.com/uk/en/find-store/japan/aichi/hermes-nagoya-mitsukoshi-sakae-BNNSA1E1/
,Hermes,Q843887,Munich,DE,magasin.munich@hermes.com,"{'@spider': 'hermes', 'shop': 'clothes'}",,,,48.139002,,,11.579346,Hermès,hermes-3937bd,,+49 89 2919703, 80539,BQ2BT8VY,,,,,https://www.hermes.com/uk/en/find-store/germany/munich/hermes-munich-BQ2BT8VY/
,Hermes,Q843887,"San Francisco, CA",US,,"{'@spider': 'hermes', 'shop': 'clothes'}",,,,37.615223,,,-122.389979,Hermès,hermes-3937bd,,+1 650-246-3077,94128,BTOXYS1L,,,,,https://www.hermes.com/uk/en/find-store/united-states/san-francisco-ca/hermes-san-francisco-international-airport-terminal-g-BTOXYS1L/
,Hermes,Q843887,Sydney,AU,,"{'@spider': 'hermes', 'shop': 'clothes'}",,,,-33.93715,,,151.167608,Hermès,hermes-3937bd,,+61 2 9667 9605,2020,BYQOF21K,,,,,https://www.hermes.com/uk/en/find-store/australia/sydney/hermes-sydney-kingsford-smith-international-airport-BYQOF21K/
,Hermes,Q843887,Manama,BH,hermes_service@almana.com,"{'@spider': 'hermes', 'shop': 'clothes'}",,,,26.239604,,,50.581536,Hermès,hermes-3937bd,,+973 1606 0601,,BZLVLJW3,,,,,https://www.hermes.com/uk/en/find-store/bahrain/manama/hermes-bahrain-BZLVLJW3/
,Hermes,Q843887,Roma,IT,,"{'@spider': 'hermes', 'shop': 'clothes'}",,,,41.90548,,,12.480181,Hermès,hermes-3937bd,,+39 06 679 3249,00187,C0PL3MTL,,,,,https://www.hermes.com/uk/en/find-store/italy/roma/hermes-via-condotti-C0PL3MTL/
,Hermes,Q843887,Roissy-en-France,FR,,"{'@spider': 'hermes', 'shop': 'clothes'}",,,,49.004,,,2.5711,Hermès,hermes-3937bd,,+33 1 74 25 43 59,95700 ,C1FIWZPB,,,,,https://www.hermes.com/uk/en/find-store/france/roissy-en-france/hermes-paris-roissy-cdg-airport-terminal-2e-gate-k-C1FIWZPB/
,Hermes,Q843887,BEIJING,CN,service.china@hermes.com,"{'@spider': 'hermes', 'shop': 'clothes'}",,,,39.909473,,,116.459181,Hermès,hermes-3937bd,,+86 10 6505 1580,"100004,",CDXERE4F,,,,,https://www.hermes.com/uk/en/find-store/china/beijing/beijing-china-world-store-CDXERE4F/
,Hermes,Q843887,Short Hills,US,,"{'@spider': 'hermes', 'shop': 'clothes'}",,,,40.740874,,,-74.364246,Hermès,hermes-3937bd,,+1 973-376-6843,07078 ,CEMCC1TJ,,,,,https://www.hermes.com/uk/en/find-store/united-states/short-hills/hermes-short-hills-CEMCC1TJ/
,Hermes,Q843887,Tsim Sha Tsui,HK,hongkong.elements@hermes.com,"{'@spider': 'hermes', 'shop': 'clothes'}",,,,22.304871,,,114.161522,Hermès,hermes-3937bd,,+852 2196 8028,,CJ3W01WG,,,,,https://www.hermes.com/uk/en/find-store/hong-kong/tsim-sha-tsui/hermes-elements-CJ3W01WG/
,Hermes,Q843887,Mumbai,IN,magasin.mumbai@hermes.com,"{'@spider': 'hermes', 'shop': 'clothes'}",,,,18.932321,,,72.835646,Hermès,hermes-3937bd,,+91 22 2271 7400,400001,CPFV29WA,,,,,https://www.hermes.com/uk/en/find-store/india/mumbai/hermes-mumbai-CPFV29WA/
,Hermes,Q843887,Amsterdam,NL,magasin.amsterdam@hermes.com,"{'@spider': 'hermes', 'shop': 'clothes'}",,,,52.360158,,,4.879893,Hermès,hermes-3937bd,,+31 20 305 7050,1071 CC,CTU864G2,,,,,https://www.hermes.com/uk/en/find-store/netherlands/amsterdam/hermes-amsterdam-p.c.-hooftstraat-CTU864G2/
,Hermes,Q843887,Kanagawa,JP,,"{'@spider': 'hermes', 'shop': 'clothes'}",,,,35.465948,,,139.620652,Hermès,hermes-3937bd,,+81 45-311-5111,220-8601,CUK1GVU1,,,,,https://www.hermes.com/uk/en/find-store/japan/kanagawa/hermes-yokohama-takashimaya-CUK1GVU1/
,Hermes,Q843887,Barcelona,ES,,"{'@spider': 'hermes', 'shop': 'clothes'}",,,,41.394033,,,2.162316,Hermès,hermes-3937bd,,+34 934 88 05 40,08008,CZ0OAX5S,,,,,https://www.hermes.com/uk/en/find-store/spain/barcelona/hermes-barcelona-paseo-de-gracia-CZ0OAX5S/
,Hermes,Q843887,Las Vegas,US,,"{'@spider': 'hermes', 'shop': 'clothes'}",,,,36.108171,,,-115.17316,Hermès,hermes-3937bd,,+1 702-893-8900,NV 89158,D2U8WF7R,,,,,https://www.hermes.com/uk/en/find-store/united-states/las-vegas/hermes-las-vegas-city-center-D2U8WF7R/
,Hermes,Q843887,CHENGDU,CN,service.china@hermes.com,"{'@spider': 'hermes', 'shop': 'clothes'}",,,,30.65399,,,104.082627,Hermès,hermes-3937bd,,+86 28 6465 7260,"610021,",D401AO5P,,,,,https://www.hermes.com/uk/en/find-store/china/chengdu/chengdu-sino-ocean-taikoo-li-store-D401AO5P/
,Hermes,Q843887,Singapore,SG,,"{'@spider': 'hermes', 'shop': 'clothes'}",,,,1.302557,,,103.834568,Hermès,hermes-3937bd,,+65 6735 5228,238873,D9T7F5ZL,,,,,https://www.hermes.com/uk/en/find-store/singapore/singapore/hermes-singapore-takashimaya-D9T7F5ZL/
,Hermes,Q843887,Paris,FR,,"{'@spider': 'hermes', 'shop': 'clothes'}",,,,48.868938,,,2.321658,Hermès,hermes-3937bd,,+33 1 40 17 46 00,75008,DDB38Q6R,,,,,https://www.hermes.com/uk/en/find-store/france/paris/hermes-paris-faubourg-saint-honore-DDB38Q6R/
,Hermes,Q843887,Brisbane,AU,brisbane@hermes.com,"{'@spider': 'hermes', 'shop': 'clothes'}",,,,-27.46919,,,153.028049,Hermès,hermes-3937bd,,+61 7 3236 2070,QLD 4000,DE21RC1P,,,,,https://www.hermes.com/uk/en/find-store/australia/brisbane/hermes-brisbane-DE21RC1P/
,Hermes,Q843887,Las Vegas,US,,"{'@spider': 'hermes', 'shop': 'clothes'}",,,,36.112626,,,-115.176705,Hermès,hermes-3937bd,,+1 702-866-2629,89109,DIZJ48M4,,,,,https://www.hermes.com/uk/en/find-store/united-states/las-vegas/hermes-las-vegas-bellagio-DIZJ48M4/
,Hermes,Q843887,Ho Chi Minh,VN,hermesboutique.hcm@tamsonfashion.com,"{'@spider': 'hermes', 'shop': 'clothes'}",,,,10.823099,,,106.629664,Hermès,hermes-3937bd,,+84 28 3936 9170,,DJW3ZLL9,,,,,https://www.hermes.com/uk/en/find-store/vietnam/ho-chi-minh/hermes-ho-chi-minh-DJW3ZLL9/
,Hermes,Q843887,Causeway Bay,HK,hongkong.sogo@hermes.com,"{'@spider': 'hermes', 'shop': 'clothes'}",,,,22.2804,,,114.184561,Hermès,hermes-3937bd,,+852 2575 5424,,DNG45GI3,,,,,https://www.hermes.com/uk/en/find-store/hong-kong/causeway-bay/hermes-sogo-DNG45GI3/
,Hermes,Q843887,Amsterdam,NL,,"{'@spider': 'hermes', 'shop': 'clothes'}",,,,52.30907,,,4.763385,Hermès,hermes-3937bd,,+31 20 410 9700,,DS4BDRZD,,,,,https://www.hermes.com/uk/en/find-store/netherlands/amsterdam/hermes-amsterdam-schiphol-airport-terminal-2-DS4BDRZD/
,Hermes,Q843887,Tokyo,JP,,"{'@spider': 'hermes', 'shop': 'clothes'}",,,,35.545548,,,139.769201,Hermès,hermes-3937bd,,+81 3-6428-0777,144-0041,DTAJAH3Q,,,,,https://www.hermes.com/uk/en/find-store/japan/tokyo/hermes-tokyo-haneda-international-airport-DTAJAH3Q/
,Hermes,Q843887,Broadbeach,AU,pacific.fair@hermes.com,"{'@spider': 'hermes', 'shop': 'clothes'}",,,,-28.036401,,,153.428022,Hermès,hermes-3937bd,,+61 7 5538 4388,QLD 4218,DTUCEV0Z,,,,,https://www.hermes.com/uk/en/find-store/australia/broadbeach/hermes-pacific-fair-DTUCEV0Z/
,Hermes,Q843887,Okayama,JP,,"{'@spider': 'hermes', 'shop': 'clothes'}",,,,34.664806,,,133.919726,Hermès,hermes-3937bd,,+81 86-221-8138,700-8520,DYD39QY2,,,,,https://www.hermes.com/uk/en/find-store/japan/okayama/hermes-okayama-takashimaya-DYD39QY2/
,Hermes,Q843887,SHANGHAI,CN,service.china@hermes.com,"{'@spider': 'hermes', 'shop': 'clothes'}",,,,31.228126,,,121.456487,Hermès,hermes-3937bd,,+86 21 6288 0328,"200040,",DZ1FQZDG,,,,,https://www.hermes.com/uk/en/find-store/china/shanghai/shanghai-plaza-66-store-DZ1FQZDG/
,Hermes,Q843887,London,GB,harrods.3m@hermes.com,"{'@spider': 'hermes', 'shop': 'clothes'}",,,,51.499392,,,-0.163229,Hermès,hermes-3937bd,,+44 20 7893 8564,SW1X 7XL,E07BQENK,,,,,https://www.hermes.com/uk/en/find-store/great-britain/london/hermes-london-harrods-home-E07BQENK/
,Hermes,Q843887,Hamburg,DE,hambourg@hermes-paris.de,"{'@spider': 'hermes', 'shop': 'clothes'}",,,,53.551423,,,9.989973,Hermès,hermes-3937bd,,+49 40 3510220,20354,E23QV2J6,,,,,https://www.hermes.com/uk/en/find-store/germany/hamburg/hermes-hambourg-E23QV2J6/
,Hermes,Q843887,Bologna,IT,bologne@hermes.it,"{'@spider': 'hermes', 'shop': 'clothes'}",,,,44.491453,,,11.344734,Hermès,hermes-3937bd,,+39 051 220098,40124,E2GMOY0L,,,,,https://www.hermes.com/uk/en/find-store/italy/bologna/hermes-bologna-E2GMOY0L/
,Hermes,Q843887,Panama City ,PA,,"{'@spider': 'hermes', 'shop': 'clothes'}",,,,8.984985,,,-79.512282,Hermès,hermes-3937bd,,+507 302-0460;175,E-357,E3EQTQ8J,,,,,https://www.hermes.com/uk/en/find-store/panama/panama-city/hermes-panama-E3EQTQ8J/
,Hermes,Q843887,Marbella,ES,,"{'@spider': 'hermes', 'shop': 'clothes'}",,,,36.486549,,,-4.953998,Hermès,hermes-3937bd,,+34 952 81 71 25,29660,E5VXEZMJ,,,,,https://www.hermes.com/uk/en/find-store/spain/marbella/hermes-marbella-E5VXEZMJ/
,Hermes,Q843887,Hounslow,GB,,"{'@spider': 'hermes', 'shop': 'clothes'}",,,,51.470122,,,-0.459451,Hermès,hermes-3937bd,,+44 20 8745 0179,TW61GQ,E9UF70EZ,,,,,https://www.hermes.com/uk/en/find-store/great-britain/hounslow/hermes-london-heathrow-airport-terminal-3-E9UF70EZ/
,Hermes,Q843887,Roissy-en-France,FR,,"{'@spider': 'hermes', 'shop': 'clothes'}",,,,49.004,,,2.5711,Hermès,hermes-3937bd,,+ 33 (0) 74 25 55 40,95700 ,EET6XPFF,,,,,https://www.hermes.com/uk/en/find-store/france/roissy-en-france/hermes-paris-roissy-cdg-airport-terminal-2-f1-EET6XPFF/
,Hermes,Q843887,Bangkok,TH,,"{'@spider': 'hermes', 'shop': 'clothes'}",,,,13.693245,,,100.752064,Hermès,hermes-3937bd,,+66 2 134 8008,10540,EISNPRE5,,,,,https://www.hermes.com/uk/en/find-store/thailand/bangkok/hermes-bangkok-suvarnabhumi-airport-international-terminal-EISNPRE5/
,Hermes,Q843887,Tokyo,JP,,"{'@spider': 'hermes', 'shop': 'clothes'}",,,,35.68787,,,139.70208,Hermès,hermes-3937bd,,+81 3-5361-1111,151-8580,EJS01T1A,,,,,https://www.hermes.com/uk/en/find-store/japan/tokyo/hermes-shinjuku-takashimaya-EJS01T1A/
,Hermes,Q843887,Las Vegas,US,,"{'@spider': 'hermes', 'shop': 'clothes'}",,,,36.129278,,,-115.165404,Hermès,hermes-3937bd,,+1 702-650-3116,NV 89109,EL90023T,,,,,https://www.hermes.com/uk/en/find-store/united-states/las-vegas/hermes-las-vegas-encore-at-wynn-plaza-EL90023T/
,Hermes,Q843887,Saint Moritz,CH,st.moritz@hermes.ch,"{'@spider': 'hermes', 'shop': 'clothes'}",,,,46.498156,,,9.840098,Hermès,hermes-3937bd,,+41 81 833 49 81,7500,ELFN6YUZ,,,,,https://www.hermes.com/uk/en/find-store/switzerland/saint-moritz/hermes-saint-moritz-ELFN6YUZ/
,Hermes,Q843887,BEIJING,CN,service.china@hermes.com,"{'@spider': 'hermes', 'shop': 'clothes'}",,,,39.915192,,,116.415767,Hermès,hermes-3937bd,,+86 10 8516 2888,"100006,",EMIF5R1C,,,,,https://www.hermes.com/uk/en/find-store/china/beijing/beijing-peninsula-store-EMIF5R1C/
,Hermes,Q843887,"San Francisco, CA",US,,"{'@spider': 'hermes', 'shop': 'clothes'}",,,,37.614113,,,-122.388719,Hermès,hermes-3937bd,,+1 650-246-3080,94128,ENNX0UGT,,,,,https://www.hermes.com/uk/en/find-store/united-states/san-francisco-ca/hermes-san-francisco-international-airport-terminal-a-ENNX0UGT/
,Hermes,Q843887,Seoul,KR,galleria@hermes.com,"{'@spider': 'hermes', 'shop': 'clothes'}",,,,37.526887,,,127.044563,Hermès,hermes-3937bd,,+82 2-547-0437,06009,EOCFA9HV,,,,,https://www.hermes.com/uk/en/find-store/south-korea/seoul/hermes-galleria-EOCFA9HV/
,Hermes,Q843887,Taichung City,"Taiwan, China",taichung.fe21@hermes.com,"{'@spider': 'hermes', 'shop': 'clothes'}",,,,24.16299,,,120.645156,Hermès,hermes-3937bd,,(886) 4 2259 3128,407,EP2JZFJN,,,,,https://www.hermes.com/uk/en/find-store/taiwan-china/taichung-city/hermes-taichung-EP2JZFJN/
,Hermes,Q843887,Lyon,FR,lyon@hermes.com,"{'@spider': 'hermes', 'shop': 'clothes'}",,,,45.759312,,,4.833821,Hermès,hermes-3937bd,,+33 4 78 42 25 14,69002,ER6K8791,,,,,https://www.hermes.com/uk/en/find-store/france/lyon/hermes-lyon-ER6K8791/
,Hermes,Q843887,London,GB,london.sloanestreet@hermes.com,"{'@spider': 'hermes', 'shop': 'clothes'}",,,,51.498471,,,-0.158812,Hermès,hermes-3937bd,,+44 20 7823 1014,SW1X 9PX,ES37WBOO,,,,,https://www.hermes.com/uk/en/find-store/great-britain/london/hermes-london-sloane-street-ES37WBOO/
,Hermes,Q843887,Chicago,US,,"{'@spider': 'hermes', 'shop': 'clothes'}",,,,41.900471,,,-87.626447,Hermès,hermes-3937bd,,+1 312-787-8175,60611,EUV91WNK,,,,,https://www.hermes.com/uk/en/find-store/united-states/chicago/hermes-chicago-EUV91WNK/
,Hermes,Q843887,Tokyo,JP,service.jp@hermes.com,"{'@spider': 'hermes', 'shop': 'clothes'}",,,,35.672047,,,139.763422,Hermès,hermes-3937bd,,+81 3-3289-6811,104-0061,EX51G1VS,,,,,https://www.hermes.com/uk/en/find-store/japan/tokyo/hermes-ginza-EX51G1VS/
,Hermes,Q843887,Honolulu,US,,"{'@spider': 'hermes', 'shop': 'clothes'}",,,,21.279314,,,-157.829727,Hermès,hermes-3937bd,,+1 808-922-5780,96815,F2GMI60Y,,,,,https://www.hermes.com/uk/en/find-store/united-states/honolulu/hermes-waikiki-F2GMI60Y/
,Hermes,Q843887,Kuwait City,KW,hermes_service@almana.com,"{'@spider': 'hermes', 'shop': 'clothes'}",,,,29.379036,,,47.993289,Hermès,hermes-3937bd,,+965 2220 1400,,FJRAC60I,,,,,https://www.hermes.com/uk/en/find-store/kuwait/kuwait-city/hermes-kuwait-city-FJRAC60I/
,Hermes,Q843887,Lille,FR,lille@hermes.com,"{'@spider': 'hermes', 'shop': 'clothes'}",,,,50.638138,,,3.063879,Hermès,hermes-3937bd,,+33 3 20 51 44 51,59800 ,FNNYK6O8,,,,,https://www.hermes.com/uk/en/find-store/france/lille/hermes-lille-FNNYK6O8/
,Hermes,Q843887,Singapore,SG,,"{'@spider': 'hermes', 'shop': 'clothes'}",,,,1.3568,,,103.9891,Hermès,hermes-3937bd,,+65 6546 5170,819643,FR4S6R18,,,,,https://www.hermes.com/uk/en/find-store/singapore/singapore/hermes-singapore-changi-airport-t2-FR4S6R18/
,Hermes,Q843887,Aichi,JP,,"{'@spider': 'hermes', 'shop': 'clothes'}",,,,34.859535,,,136.814582,Hermès,hermes-3937bd,,+81 569-38-7122,479-0881,G0RPUC0W,,,,,https://www.hermes.com/uk/en/find-store/japan/aichi/hermes-nagoya-chubu-centrair-international-airport-G0RPUC0W/
,Hermes,Q843887,Seoul,KR,magasin.dosan@hermes.com,"{'@spider': 'hermes', 'shop': 'clothes'}",,,,37.522743,,,127.035315,Hermès,hermes-3937bd,,+82 2-542-6622,06021,G16N38FW,,,,,https://www.hermes.com/uk/en/find-store/south-korea/seoul/maison-hermes-dosan-park-G16N38FW/
,Hermes,Q843887,Padua,IT,padoue@hermes.it,"{'@spider': 'hermes', 'shop': 'clothes'}",,,,45.410535,,,11.876585,Hermès,hermes-3937bd,,+39 049 662199,35122,GITY3B64,,,,,https://www.hermes.com/uk/en/find-store/italy/padua/hermes-padua-GITY3B64/
,Hermes,Q843887,Seoul,KR,coex@hermes.com,"{'@spider': 'hermes', 'shop': 'clothes'}",,,,37.508514,,,127.059583,Hermès,hermes-3937bd,,+82 2-3467-8822,06164,GJC5783W,,,,,https://www.hermes.com/uk/en/find-store/south-korea/seoul/hermes-hyundai-trade-center-GJC5783W/
,Hermes,Q843887,Hiroshima,JP,,"{'@spider': 'hermes', 'shop': 'clothes'}",,,,34.395894,,,132.457092,Hermès,hermes-3937bd,,+81 82-225-2111,730-8501,GQVR39JR,,,,,https://www.hermes.com/uk/en/find-store/japan/hiroshima/hermes-hiroshima-sogo-GQVR39JR/
,Hermes,Q843887,Frankfurt,DE,,"{'@spider': 'hermes', 'shop': 'clothes'}",,,,50.048098,,,8.573713,Hermès,hermes-3937bd,,+49 69 69706960,60549,GSII6A70,,,,,https://www.hermes.com/uk/en/find-store/germany/frankfurt/hermes-frankfurt-airport-terminal-1b-GSII6A70/
,Hermes,Q843887,SHANGHAI,CN,service.china@hermes.com,"{'@spider': 'hermes', 'shop': 'clothes'}",,,,31.223712,,,121.476143,Hermès,hermes-3937bd,,+86 21 8013 7217,"200021,",GTXRBUSG,,,,,https://www.hermes.com/uk/en/find-store/china/shanghai/shanghai-maison-GTXRBUSG/
,Hermes,Q843887,Palm Beach,US,,"{'@spider': 'hermes', 'shop': 'clothes'}",,,,26.716709,,,-80.042234,Hermès,hermes-3937bd,,+1 561-514-0288,33480,GWDKLQA6,,,,,https://www.hermes.com/uk/en/find-store/united-states/palm-beach/hermes-palm-beach-GWDKLQA6/
,Hermes,Q843887,NAPE,MO,,"{'@spider': 'hermes', 'shop': 'clothes'}",,,,22.185317,,,113.546716,Hermès,hermes-3937bd,,+853 2878 3389,,GWEQQKJ5,,,,,https://www.hermes.com/uk/en/find-store/macau/nape/hermes-one-central-macau-GWEQQKJ5/
,Hermes,Q843887,Vienna,AT,hermes@jonak.at,"{'@spider': 'hermes', 'shop': 'clothes'}",,,,48.209199,,,16.369302,Hermès,hermes-3937bd,,+43 1 5325656,1010,H2OCK8J6,,,,,https://www.hermes.com/uk/en/find-store/austria/vienna/hermes-vienna-H2OCK8J6/
,Hermes,Q843887,Doha,QA,,"{'@spider': 'hermes', 'shop': 'clothes'}",,,,25.261132,,,51.613633,Hermès,hermes-3937bd,,+974 4010 1658,P.O Box 24659,H8M16QPG,,,,,https://www.hermes.com/uk/en/find-store/qatar/doha/hermes-doha-hamad-international-airport-H8M16QPG/
,Hermes,Q843887,Chiba,JP,,"{'@spider': 'hermes', 'shop': 'clothes'}",,,,35.76483,,,140.383749,Hermès,hermes-3937bd,,+81 476-30-0045,282-0004,HBDSZGJ3,,,,,https://www.hermes.com/uk/en/find-store/japan/chiba/hermes-tokyo-narita-international-airport-t1-north-HBDSZGJ3/
,Hermes,Q843887,SHENYANG,CN,service.china@hermes.com,"{'@spider': 'hermes', 'shop': 'clothes'}",,,,41.774939,,,123.435204,Hermès,hermes-3937bd,,+86 24 3137 9608,"110016,",HD3KIQVY,,,,,https://www.hermes.com/uk/en/find-store/china/shenyang/shenyang-mixc-store-HD3KIQVY/
,Hermes,Q843887,Luxembourg,LU,,"{'@spider': 'hermes', 'shop': 'clothes'}",,,,49.611195,,,6.128139,Hermès,hermes-3937bd,,+352 22 09 81,L-2340  ,HG5P4VHU,,,,,https://www.hermes.com/uk/en/find-store/luxembourg/luxembourg/hermes-luxembourg-HG5P4VHU/
,Hermes,Q843887,Hyogo,JP,,"{'@spider': 'hermes', 'shop': 'clothes'}",,,,34.688323,,,135.190857,Hermès,hermes-3937bd,,+81 78-331-8121,650-0037,HM6Q1ZJ2,,,,,https://www.hermes.com/uk/en/find-store/japan/hyogo/hermes-kobe-daimaru-HM6Q1ZJ2/
,Hermes,Q843887,SHENZHEN,CN,service.china@hermes.com,"{'@spider': 'hermes', 'shop': 'clothes'}",,,,22.537432,,,114.111746,Hermès,hermes-3937bd,,+86 755 2265 5618,"518001,",HN2HN5WC,,,,,https://www.hermes.com/uk/en/find-store/china/shenzhen/shenzhen-mixc-store-HN2HN5WC/
,Hermes,Q843887,King of Prussia,US,,"{'@spider': 'hermes', 'shop': 'clothes'}",,,,40.088129,,,-75.388111,Hermès,hermes-3937bd,,+1 610-992-9730,19406,HR4D15UA,,,,,https://www.hermes.com/uk/en/find-store/united-states/king-of-prussia/hermes-king-of-prussia-HR4D15UA/
,Hermes,Q843887,Stuttgart,DE,magasin.stuttgart@hermes.com,"{'@spider': 'hermes', 'shop': 'clothes'}",,,,48.776054,,,9.177387,Hermès,hermes-3937bd,,+49 711 72233720,70173,HT9ONZPL,,,,,https://www.hermes.com/uk/en/find-store/germany/stuttgart/hermes-stuttgart-HT9ONZPL/
,Hermes,Q843887,Beverly Hills,US,,"{'@spider': 'hermes', 'shop': 'clothes'}",,,,34.070066,,,-118.403303,Hermès,hermes-3937bd,,+1 310-278-6440,90210,HU3TVXPK,,,,,https://www.hermes.com/uk/en/find-store/united-states/beverly-hills/hermes-beverly-hills-HU3TVXPK/
,Hermes,Q843887,New York,US,,"{'@spider': 'hermes', 'shop': 'clothes'}",,,,40.706711,,,-74.010457,Hermès,hermes-3937bd,,+1 212-785-3030,10005,HVLHX8RA,,,,,https://www.hermes.com/uk/en/find-store/united-states/new-york/hermes-new-york-wall-street-HVLHX8RA/
,Hermes,Q843887,Sao Paulo,BR,magasin.iguatemi@sa.hermes.com,"{'@spider': 'hermes', 'shop': 'clothes'}",,,,-23.577125,,,-46.688236,Hermès,hermes-3937bd,,+55 11 3034-6551,01489-900,HZJMDPC5,,,,,https://www.hermes.com/uk/en/find-store/brazil/sao-paulo/hermes-iguatemi-HZJMDPC5/
,Hermes,Q843887,Madrid,ES,,"{'@spider': 'hermes', 'shop': 'clothes'}",,,,40.430229,,,-3.685447,Hermès,hermes-3937bd,,+34 915 78 30 41,28006,IAENQ6HR,,,,,https://www.hermes.com/uk/en/find-store/spain/madrid/hermes-jose-ortega-y-gasset-IAENQ6HR/
,Hermes,Q843887,Taipei,"Taiwan, China",,"{'@spider': 'hermes', 'shop': 'clothes'}",,,,25.079651,,,121.234217,Hermès,hermes-3937bd,,+886 3 398 3497,33758,IBIOD00T,,,,,https://www.hermes.com/uk/en/find-store/taiwan-china/taipei/hermes-taipei-taoyuan-international-airport-t2-IBIOD00T/
,Hermes,Q843887,Manila,PH,,"{'@spider': 'hermes', 'shop': 'clothes'}",,,,14.551831,,,121.021942,Hermès,hermes-3937bd,,+63 2 7757 8910,1228,IIWMOPCB,,,,,https://www.hermes.com/uk/en/find-store/philippines/manila/hermes-manila-IIWMOPCB/
,Hermes,Q843887,Chagrin Falls,US,,"{'@spider': 'hermes', 'shop': 'clothes'}",,,,41.432336,,,-81.391747,Hermès,hermes-3937bd,,+1 440-247-2828,44022,IUMZLVXZ,,,,,https://www.hermes.com/uk/en/find-store/united-states/chagrin-falls/hermes-chagrin-falls-at-cuff-s-IUMZLVXZ/
,Hermes,Q843887,Geneva,CH,,"{'@spider': 'hermes', 'shop': 'clothes'}",,,,46.238418,,,6.117159,Hermès,hermes-3937bd,,+41 22 717 86 18,1213,IVNWQWXF,,,,,https://www.hermes.com/uk/en/find-store/switzerland/geneva/hermes-geneva-cointrin-airport-IVNWQWXF/
,Hermes,Q843887,Lisbon,PT,,"{'@spider': 'hermes', 'shop': 'clothes'}",,,,38.710505,,,-9.142418,Hermès,hermes-3937bd,,+351 21 324 2070,1200-108,J0BAJYOH,,,,,https://www.hermes.com/uk/en/find-store/portugal/lisbon/hermes-lisbon-J0BAJYOH/
,Hermes,Q843887,Gyeonggi-do,KR,,"{'@spider': 'hermes', 'shop': 'clothes'}",,,,37.389786,,,127.109856,Hermès,hermes-3937bd,,+82 31-5170-1117,13529,J0FBTH6E,,,,,https://www.hermes.com/uk/en/find-store/south-korea/gyeonggi-do/hermes-hyundai-pangyo-J0FBTH6E/
,Hermes,Q843887,Chiba,JP,,"{'@spider': 'hermes', 'shop': 'clothes'}",,,,35.611086,,,140.114022,Hermès,hermes-3937bd,,+81 43-245-2111,260-8557,J0WB0HCV,,,,,https://www.hermes.com/uk/en/find-store/japan/chiba/hermes-chiba-sogo-J0WB0HCV/
,Hermes,Q843887,London,GB,london.royalexchange@hermes.com,"{'@spider': 'hermes', 'shop': 'clothes'}",,,,51.513574,,,-0.086542,Hermès,hermes-3937bd,,+44 20 7626 7794,EC3V 3LL,J46GL9PH,,,,,https://www.hermes.com/uk/en/find-store/great-britain/london/hermes-london-royal-exchange-J46GL9PH/
,Hermes,Q843887,Kaohsiung,"Taiwan, China",kaohsiung.hanshin@hermes.com,"{'@spider': 'hermes', 'shop': 'clothes'}",,,,22.619322,,,120.295862,Hermès,hermes-3937bd,,+886 7 215 6370,,JC2TSZ2I,,,,,https://www.hermes.com/uk/en/find-store/taiwan-china/kaohsiung/hermes-kaohsiung-JC2TSZ2I/
,Hermes,Q843887,Orlando,US,magasin.orlando@hermesofparis.com,"{'@spider': 'hermes', 'shop': 'clothes'}",,,,28.485537,,,-81.431505,Hermès,hermes-3937bd,,+1 407-815-5411,32839,JDQT6ID3,,,,,https://www.hermes.com/uk/en/find-store/united-states/orlando/hermes-orlando-JDQT6ID3/
,Hermes,Q843887,Jamaica,US,,"{'@spider': 'hermes', 'shop': 'clothes'}",,,,40.641311,,,-73.778139,Hermès,hermes-3937bd,,+1 718-215-1364 ext. 233,11434,JFLUAL4Q,,,,,https://www.hermes.com/uk/en/find-store/united-states/jamaica/hermes-new-york-jfk-international-airport-terminal-1-JFLUAL4Q/
,Hermes,Q843887,KUNMING,CN,service.china@hermes.com,"{'@spider': 'hermes', 'shop': 'clothes'}",,,,25.062359,,,102.723981,Hermès,hermes-3937bd,,+86 871 6315 9800,"650021,",JKFJBD3D,,,,,https://www.hermes.com/uk/en/find-store/china/kunming/kunming-gingko-center-store-JKFJBD3D/
,Hermes,Q843887,Manchester,GB,magasin.manchester_selfridges@hermes.com,"{'@spider': 'hermes', 'shop': 'clothes'}",,,,53.483948,,,-2.243707,Hermès,hermes-3937bd,,+44 161 838 0668,M3 1BD,JT6RJZGU,,,,,https://www.hermes.com/uk/en/find-store/great-britain/manchester/hermes-manchester-selfridges-JT6RJZGU/
,Hermes,Q843887,SHANGHAI,CN,,"{'@spider': 'hermes', 'shop': 'clothes'}",,,,31.15497,,,121.48189,Hermès,hermes-3937bd,,+86 21 5886 8980,200041,JUCU8I8Z,,,,,https://www.hermes.com/uk/en/find-store/china/shanghai/shanghai-taikoo-li-qiantan-store-JUCU8I8Z/
,Hermes,Q843887,Tokyo,JP,,"{'@spider': 'hermes', 'shop': 'clothes'}",,,,35.691802,,,139.70521,Hermès,hermes-3937bd,,+81 3-3352-1111,160-0022,K0BOULMK,,,,,https://www.hermes.com/uk/en/find-store/japan/tokyo/hermes-shinjuku-isetan-K0BOULMK/
,Hermes,Q843887,Cotai,MO,,"{'@spider': 'hermes', 'shop': 'clothes'}",,,,22.147935,,,113.570116,Hermès,hermes-3937bd,,+853 2877 6029,,K37RORTL,,,,,https://www.hermes.com/uk/en/find-store/macau/cotai/hermes-wynn-palace-K37RORTL/
,Hermes,Q843887,Moscow,RU,,"{'@spider': 'hermes', 'shop': 'clothes'}",,,,55.73146,,,37.486649,Hermès,hermes-3937bd,,+7 499 550-33-22,121108,K7922ECL,,,,,https://www.hermes.com/uk/en/find-store/russia/moscow/hermes-moscow-vremena-goda-K7922ECL/
,Hermes,Q843887,Frankfurt,DE,magasin.francfort@hermes.com,"{'@spider': 'hermes', 'shop': 'clothes'}",,,,50.113946,,,8.67374,Hermès,hermes-3937bd,,+49 69 2980283,60313,KC0X7JN0,,,,,https://www.hermes.com/uk/en/find-store/germany/frankfurt/hermes-frankfurt-goethestrasse-KC0X7JN0/
,Hermes,Q843887,Saint Barthélémy,Caribbean,stbarth@hermes.com,"{'@spider': 'hermes', 'shop': 'clothes'}",,,,17.8986,,,-62.849985,Hermès,hermes-3937bd,,+590 590 27 66 15,97133 ,KJMLA2JV,,,,,https://www.hermes.com/uk/en/find-store/caribbean/saint-barthelemy/hermes-saint-barthelemy-KJMLA2JV/
,Hermes,Q843887,Seoul,KR,magasin.sseoul@hermes.com,"{'@spider': 'hermes', 'shop': 'clothes'}",,,,37.557945,,,127.007634,Hermès,hermes-3937bd,,+82 2-2230-3644,04605,KLVBKTPF,,,,,https://www.hermes.com/uk/en/find-store/south-korea/seoul/hermes-seoul-shilla-hotel-duty-free-store-KLVBKTPF/
,Hermes,Q843887,New York,US,,"{'@spider': 'hermes', 'shop': 'clothes'}",,,,40.739244,,,-74.00656,Hermès,hermes-3937bd,,+1 212-257-1600,10014,KMPOKVFU,,,,,https://www.hermes.com/uk/en/find-store/united-states/new-york/hermes-meatpacking-KMPOKVFU/
,Hermes,Q843887,Aichi,JP,,"{'@spider': 'hermes', 'shop': 'clothes'}",,,,35.1713,,,136.88265,Hermès,hermes-3937bd,,+81 52-566-1101,450-6001,KQFQKBNX,,,,,https://www.hermes.com/uk/en/find-store/japan/aichi/hermes-nagoya-jr-takashimaya-KQFQKBNX/
,Hermes,Q843887,Los Angeles,US,,"{'@spider': 'hermes', 'shop': 'clothes'}",,,,33.94397,,,-118.40831,Hermès,hermes-3937bd,,+1 310-783-6762,CA 90045,KRHTZS72,,,,,https://www.hermes.com/uk/en/find-store/united-states/los-angeles/hermes-los-angeles-international-airport-KRHTZS72/
,Hermes,Q843887,Kuala Lumpur,MY,,"{'@spider': 'hermes', 'shop': 'clothes'}",,,,2.754483,,,101.701136,Hermès,hermes-3937bd,,+60 3-8776 1188,64000,KRSAW8I5,,,,,https://www.hermes.com/uk/en/find-store/malaysia/kuala-lumpur/hermes-kuala-lumpur-international-airport-KRSAW8I5/
,Hermes,Q843887,Nantes,FR,hermes.nantes@orange.fr,"{'@spider': 'hermes', 'shop': 'clothes'}",,,,47.213604,,,-1.559819,Hermès,hermes-3937bd,,+33 2 40 12 12 06,44000,KXX6LNV3,,,,,https://www.hermes.com/uk/en/find-store/france/nantes/hermes-nantes-KXX6LNV3/
,Hermes,Q843887,Sao Paulo,BR,Magasin.CIDADEJARDIM@sa.hermes.com,"{'@spider': 'hermes', 'shop': 'clothes'}",,,,-23.564663,,,-46.705519,Hermès,hermes-3937bd,,+55 11 3552-4500,05502-001,KYA7S5N7,,,,,https://www.hermes.com/uk/en/find-store/brazil/sao-paulo/hermes-cidade-jardim-KYA7S5N7/
,Hermes,Q843887,Megève,FR,v.evrard@wanadoo.fr,"{'@spider': 'hermes', 'shop': 'clothes'}",,,,45.856769,,,6.618019,Hermès,hermes-3937bd,,+33 4 50 21 02 90,,L3RLXMSI,,,,,https://www.hermes.com/uk/en/find-store/france/megeve/hermes-megeve-L3RLXMSI/
,Hermes,Q843887,Osaka,JP,,"{'@spider': 'hermes', 'shop': 'clothes'}",,,,34.702819,,,135.498532,Hermès,hermes-3937bd,,+81 6-6361-1381,530-8350,LALOZND4,,,,,https://www.hermes.com/uk/en/find-store/japan/osaka/hermes-umeda-hankyu-LALOZND4/
,Hermes,Q843887,Geneva,CH,geneve@hermes.ch,"{'@spider': 'hermes', 'shop': 'clothes'}",,,,46.203817,,,6.149731,Hermès,hermes-3937bd,,+41 22 819 07 19,1204,LKQV1QB8,,,,,https://www.hermes.com/uk/en/find-store/switzerland/geneva/hermes-geneva-LKQV1QB8/
,Hermes,Q843887,Tainan,"Taiwan, China",tainan.misukoshi@hermes.com,"{'@spider': 'hermes', 'shop': 'clothes'}",,,,22.986743,,,120.197829,Hermès,hermes-3937bd,,+886 6 303 0381,702,LMSR2G6A,,,,,https://www.hermes.com/uk/en/find-store/taiwan-china/tainan/hermes-tainan-LMSR2G6A/
,Hermes,Q843887,Istanbul,TR,,"{'@spider': 'hermes', 'shop': 'clothes'}",,,,40.997644,,,29.073161,Hermès,hermes-3937bd,,+90 216 515 45 88,34700,LQYFF9KF,,,,,https://www.hermes.com/uk/en/find-store/turkey/istanbul/hermes-emaar-istanbul-LQYFF9KF/
,Hermes,Q843887,Munich,DE,,"{'@spider': 'hermes', 'shop': 'clothes'}",,,,48.353979,,,11.78156,Hermès,hermes-3937bd,,+49 89 97584444,85356,LUWDXQC5,,,,,https://www.hermes.com/uk/en/find-store/germany/munich/hermes-munich-international-airport-t2-level-4-LUWDXQC5/
,Hermes,Q843887,Montpellier,FR,hermes-montpellier@wanadoo.fr,"{'@spider': 'hermes', 'shop': 'clothes'}",,,,43.609331,,,3.879114,Hermès,hermes-3937bd,,+33 4 67 60 51 61,34000,LXRHDEML,,,,,https://www.hermes.com/uk/en/find-store/france/montpellier/hermes-montpellier-LXRHDEML/
,Hermes,Q843887,Roissy-en-France,FR,,"{'@spider': 'hermes', 'shop': 'clothes'}",,,,49.004961,,,2.580485,Hermès,hermes-3937bd,,+33 1 74 37 14 95,95700,LYOB2GKA,,,,,https://www.hermes.com/uk/en/find-store/france/roissy-en-france/hermes-paris-roissy-cdg-airport-terminal-2e-gate-m-LYOB2GKA/
,Hermes,Q843887,Fiumicino,IT,,"{'@spider': 'hermes', 'shop': 'clothes'}",,,,41.77004,,,12.258998,Hermès,hermes-3937bd,,+39 06 6595 56026,00054,M477B9AR,,,,,https://www.hermes.com/uk/en/find-store/italy/fiumicino/hermes-rome-fiumicino-airport-terminal-3-M477B9AR/
,Hermes,Q843887,Nice,FR,,"{'@spider': 'hermes', 'shop': 'clothes'}",,,,43.663791,,,7.212856,Hermès,hermes-3937bd,,+33 4 83 76 26 16,06281,M52NT8BK,,,,,https://www.hermes.com/uk/en/find-store/france/nice/hermes-nice-cote-d-azur-airport-terminal-2-M52NT8BK/
,Hermes,Q843887,Taipei,"Taiwan, China",,"{'@spider': 'hermes', 'shop': 'clothes'}",,,,25.077401,,,121.232001,Hermès,hermes-3937bd,,+886 3 398 3497,33758,MLZYEFKR,,,,,https://www.hermes.com/uk/en/find-store/taiwan-china/taipei/hermes-taipei-taoyuan-international-airport-t1-south-MLZYEFKR/
,Hermes,Q843887,CHONGQING,CN,,"{'@spider': 'hermes', 'shop': 'clothes'}",,,,29.518082,,,106.517972,Hermès,hermes-3937bd,,+86 23 6888 0650,"400050,",MPLEKZJB,,,,,https://www.hermes.com/uk/en/find-store/china/chongqing/chongqing-mix-store-MPLEKZJB/
,Hermes,Q843887,Kanagawa,JP,,"{'@spider': 'hermes', 'shop': 'clothes'}",,,,35.465586,,,139.625026,Hermès,hermes-3937bd,,+81 45-465-2111,220-8510,MPWOUK9G,,,,,https://www.hermes.com/uk/en/find-store/japan/kanagawa/hermes-yokohama-sogo-MPWOUK9G/
,Hermes,Q843887,Warsaw ,PL,,"{'@spider': 'hermes', 'shop': 'clothes'}",,,,52.242068,,,21.015207,Hermès,hermes-3937bd,,,00-071,MXZC9SI6,,,,,https://www.hermes.com/uk/en/find-store/poland/warsaw/hermes-warsaw-MXZC9SI6/
,Hermes,Q843887,Cannes,FR,cannes@hermes.com,"{'@spider': 'hermes', 'shop': 'clothes'}",,,,43.55071,,,7.021245,Hermès,hermes-3937bd,,+33 4 93 39 08 90,06400 ,ND5ADTV2,,,,,https://www.hermes.com/uk/en/find-store/france/cannes/hermes-cannes-ND5ADTV2/
,Hermes,Q843887,Dallas  ,US,,"{'@spider': 'hermes', 'shop': 'clothes'}",,,,32.835214,,,-96.806369,Hermès,hermes-3937bd,,+1 214-528-0197,75205,NIHFTIOX,,,,,https://www.hermes.com/uk/en/find-store/united-states/dallas/hermes-dallas-NIHFTIOX/
,Hermes,Q843887,Honolulu,US,,"{'@spider': 'hermes', 'shop': 'clothes'}",,,,21.333833,,,-157.923832,Hermès,hermes-3937bd,,+1 808-837-3236,96819 ,NK7AE9ES,,,,,https://www.hermes.com/uk/en/find-store/united-states/honolulu/hermes-honolulu-daniel-k.inouye-international-airport-NK7AE9ES/
,Hermes,Q843887,Chiba,JP,,"{'@spider': 'hermes', 'shop': 'clothes'}",,,,35.774134,,,140.389077,Hermès,hermes-3937bd,,+81 476-34-8051,282-0004,NMEMEIEN,,,,,https://www.hermes.com/uk/en/find-store/japan/chiba/hermes-tokyo-narita-international-airport-t2-NMEMEIEN/
,Hermes,Q843887,Osaka,JP,,"{'@spider': 'hermes', 'shop': 'clothes'}",,,,34.702819,,,135.498532,Hermès,hermes-3937bd,,+81 6-6361-1381,530-8350,NMTGRWGW,,,,,https://www.hermes.com/uk/en/find-store/japan/osaka/hankyu-umeda-hermes-in-colors-NMTGRWGW/
,Hermes,Q843887,Osaka,JP,,"{'@spider': 'hermes', 'shop': 'clothes'}",,,,34.673273,,,135.500948,Hermès,hermes-3937bd,,+81 6-6271-1231,542-8501,NN92JRJS,,,,,https://www.hermes.com/uk/en/find-store/japan/osaka/hermes-shinsaibashi-daimaru-NN92JRJS/
,Hermes,Q843887,New Delhi,IN,,"{'@spider': 'hermes', 'shop': 'clothes'}",,,,28.585058,,,77.190973,Hermès,hermes-3937bd,,+91 11 2688 5501,110021,NO6T92MK,,,,,https://www.hermes.com/uk/en/find-store/india/new-delhi/hermes-new-delhi-the-chanakya-NO6T92MK/
,Hermes,Q843887,Atlanta,US,,"{'@spider': 'hermes', 'shop': 'clothes'}",,,,33.838425,,,-84.379126,Hermès,hermes-3937bd,,+1 404-233-1011,30305,NR6ZWXVZ,,,,,https://www.hermes.com/uk/en/find-store/united-states/atlanta/hermes-atlanta-NR6ZWXVZ/
,Hermes,Q843887,Bangkok,TH,magasin.iconsiam@hermes.com ,"{'@spider': 'hermes', 'shop': 'clothes'}",,,,13.726503,,,100.510091,Hermès,hermes-3937bd,,+66 (0) 2288 0787-8,10600,NV0KLWT5,,,,,https://www.hermes.com/uk/en/find-store/thailand/bangkok/hermes-iconsiam-bangkok-NV0KLWT5/
,Hermes,Q843887,San Francisco,US,,"{'@spider': 'hermes', 'shop': 'clothes'}",,,,37.788077,,,-122.405372,Hermès,hermes-3937bd,,+1 415-391-7200,94108,NXYNXFXC,,,,,https://www.hermes.com/uk/en/find-store/united-states/san-francisco/hermes-san-francisco-NXYNXFXC/
,Hermes,Q843887,DALIAN,CN,service.china@hermes.com,"{'@spider': 'hermes', 'shop': 'clothes'}",,,,38.923948,,,121.649779,Hermès,hermes-3937bd,,+86 411 3985 7800,"116001,",O0TLQ7AR,,,,,https://www.hermes.com/uk/en/find-store/china/dalian/dalian-time-square-store-O0TLQ7AR/
,Hermes,Q843887,Roissy-en-France,FR,,"{'@spider': 'hermes', 'shop': 'clothes'}",,,,49.004,,,2.5711,Hermès,hermes-3937bd,,+33 1 48 62 28 00,95700,O5W52NY9,,,,,https://www.hermes.com/uk/en/find-store/france/roissy-en-france/hermes-paris-roissy-cdg-airport-terminal-2-f2-O5W52NY9/
,Hermes,Q843887,Singapore,SG,,"{'@spider': 'hermes', 'shop': 'clothes'}",,,,1.359141,,,103.990746,Hermès,hermes-3937bd,,+65 6546 2557,819642,O6KU873V,,,,,https://www.hermes.com/uk/en/find-store/singapore/singapore/hermes-singapore-changi-airport-t1-O6KU873V/
,Hermes,Q843887,Buenos Aires,AR,mbuenosaires@sa.hermes.com,"{'@spider': 'hermes', 'shop': 'clothes'}",,,,-34.587593,,,-58.389271,Hermès,hermes-3937bd,,+54 11 4804-1209,1901,O7FQHSXZ,,,,,https://www.hermes.com/uk/en/find-store/argentina/buenos-aires/hermes-buenos-aires-O7FQHSXZ/
,Hermes,Q843887,Kuala Lumpur,MY,magasin.thegardens@hermes.com,"{'@spider': 'hermes', 'shop': 'clothes'}",,,,3.118263,,,101.675888,Hermès,hermes-3937bd,,+60 3-2284 0048,59200,OFA0SEMC,,,,,https://www.hermes.com/uk/en/find-store/malaysia/kuala-lumpur/hermes-kuala-lumpur-the-gardens-OFA0SEMC/
,Hermes,Q843887,Washington,US,,"{'@spider': 'hermes', 'shop': 'clothes'}",,,,38.900197,,,-77.025199,Hermès,hermes-3937bd,,+1 202-789-4341,20001,OI4OTPUO,,,,,https://www.hermes.com/uk/en/find-store/united-states/washington/hermes-washington-d.c.-OI4OTPUO/
,Hermes,Q843887,Malaysia,MY,magasin.pavilion@hermes.com,"{'@spider': 'hermes', 'shop': 'clothes'}",,,,3.148543,,,101.715013,Hermès,hermes-3937bd,,+60 3-2142 0048,55100,OZ0VE3BE,,,,,https://www.hermes.com/uk/en/find-store/malaysia/malaysia/hermes-kuala-lumpur-pavilion-OZ0VE3BE/
,Hermes,Q843887,Osaka,JP,,"{'@spider': 'hermes', 'shop': 'clothes'}",,,,34.66402,,,135.501444,Hermès,hermes-3937bd,,+81 6-6631-1101,542-8510,P06I6PDE,,,,,https://www.hermes.com/uk/en/find-store/japan/osaka/hermes-osaka-takashimaya-P06I6PDE/
,Hermes,Q843887,Hounslow,GB,,"{'@spider': 'hermes', 'shop': 'clothes'}",,,,51.471803,,,-0.489046,Hermès,hermes-3937bd,,+44 20 8283 6084,TW6 2GA,P0D693YP,,,,,https://www.hermes.com/uk/en/find-store/great-britain/hounslow/hermes-london-heathrow-airport-terminal-5-P0D693YP/
,Hermes,Q843887, NANJING,CN,service.china@hermes.com,"{'@spider': 'hermes', 'shop': 'clothes'}",,,,32.042032,,,118.784474,Hermès,hermes-3937bd,,+86 25 8476 4511,"210005,",P1TXW4SV,,,,,https://www.hermes.com/uk/en/find-store/china/nanjing/nanjing-deji-store-P1TXW4SV/
,Hermes,Q843887,Busan,KR,magasin.lbusan@hermes.com,"{'@spider': 'hermes', 'shop': 'clothes'}",,,,35.15673,,,129.056266,Hermès,hermes-3937bd,,+82 51-810-3832,47285,P3IH8PP2,,,,,https://www.hermes.com/uk/en/find-store/south-korea/busan/hermes-lotte-busan-duty-free-store-P3IH8PP2/
,Hermes,Q843887,Boston,US,,"{'@spider': 'hermes', 'shop': 'clothes'}",,,,42.351776,,,-71.070304,Hermès,hermes-3937bd,,+1 617-482-8707,02116,P75RZDFM,,,,,https://www.hermes.com/uk/en/find-store/united-states/boston/hermes-boston-P75RZDFM/
,Hermes,Q843887,Düsseldorf,DE,magasin.dusseldorf@hermes.com,"{'@spider': 'hermes', 'shop': 'clothes'}",,,,51.223963,,,6.778319,Hermès,hermes-3937bd,,+49 211 864380,40212,P7O474F9,,,,,https://www.hermes.com/uk/en/find-store/germany/duesseldorf/hermes-duesseldorf-P7O474F9/
,Hermes,Q843887,Bordeaux,FR,bordeaux@hermes.com,"{'@spider': 'hermes', 'shop': 'clothes'}",,,,44.841797,,,-0.579762,Hermès,hermes-3937bd,,+33 5 56 52 22 07,33000 ,P7R8JGCJ,,,,,https://www.hermes.com/uk/en/find-store/france/bordeaux/hermes-bordeaux-P7R8JGCJ/
,Hermes,Q843887,Abu Dhabi,dh,,"{'@spider': 'hermes', 'shop': 'clothes'}",,,,24.432972,,,54.651138,Hermès,hermes-3937bd,,+971 2 575 9556,,PDZ3QTVJ,,,,,https://www.hermes.com/uk/en/find-store/united-arab-emirates/abu-dhabi/hermes-abu-dhabi-international-airport-terminal-3-PDZ3QTVJ/
,Hermes,Q843887,ZHENGZHOU,CN,,"{'@spider': 'hermes', 'shop': 'clothes'}",,,,34.758329,,,113.666952,Hermès,hermes-3937bd,,+86 371 6015 8678,"450000,",PEDUUKHK,,,,,https://www.hermes.com/uk/en/find-store/china/zhengzhou/zhengzhou-david-plaza-store-PEDUUKHK/
,Hermes,Q843887,Dubai,dh,,"{'@spider': 'hermes', 'shop': 'clothes'}",,,,25.245644,,,55.360308,Hermès,hermes-3937bd,,+971 4 505 3448,,PGXICELF,,,,,https://www.hermes.com/uk/en/find-store/united-arab-emirates/dubai/hermes-dubai-international-airport-t3-a-PGXICELF/
,Hermes,Q843887,Melbourne,AU,melbourne@hermes.com,"{'@spider': 'hermes', 'shop': 'clothes'}",,,,-37.814336,,,144.971364,Hermès,hermes-3937bd,,+61 3 9654 5571,VIC 3000,PIG7S8W2,,,,,https://www.hermes.com/uk/en/find-store/australia/melbourne/hermes-melbourne-PIG7S8W2/
,Hermes,Q843887,Beijing,CN,,"{'@spider': 'hermes', 'shop': 'clothes'}",,,,40.079857,,,116.603112,Hermès,hermes-3937bd,,+86 10 8169 9680,102604,PLMNPESP,,,,,https://www.hermes.com/uk/en/find-store/china/beijing/hermes-beijing-daxing-international-airport-PLMNPESP/
,Hermes,Q843887,México,MX,magasin.artz@sa.hermes.com,"{'@spider': 'hermes', 'shop': 'clothes'}",,,,19.304336,,,-99.190282,Hermès,hermes-3937bd,,+52 55 5206 8114,01900,PMZOTNYZ,,,,,https://www.hermes.com/uk/en/find-store/mexico/mexico/hermes-mexico-artz-pedregal-PMZOTNYZ/
,Hermes,Q843887,Dubai,dh,hermes_service@almana.com,"{'@spider': 'hermes', 'shop': 'clothes'}",,,,25.198635,,,55.274657,Hermès,hermes-3937bd,,+971 4 818 1222,,PNZMI5TG,,,,,https://www.hermes.com/uk/en/find-store/united-arab-emirates/dubai/hermes-the-dubai-mall-PNZMI5TG/
,Hermes,Q843887,Paris,FR,magasin.paris_rue_sevre@hermes.com,"{'@spider': 'hermes', 'shop': 'clothes'}",,,,48.851566,,,2.327877,Hermès,hermes-3937bd,,+33 1 42 22 80 83,75006,Q24ZI3HV,,,,,https://www.hermes.com/uk/en/find-store/france/paris/hermes-paris-sevres-Q24ZI3HV/
,Hermes,Q843887,San Pedro,MX,,"{'@spider': 'hermes', 'shop': 'clothes'}",,,,25.661516,,,-100.400597,Hermès,hermes-3937bd,,+52 81 8356 8301,66220,Q3CDM64Y,,,,,https://www.hermes.com/uk/en/find-store/mexico/san-pedro/hermes-monterrey-Q3CDM64Y/
,Hermes,Q843887,Greenwich,US,,"{'@spider': 'hermes', 'shop': 'clothes'}",,,,41.025606,,,-73.625442,Hermès,hermes-3937bd,,+1 203-622-3007,06830,Q6XPBFLR,,,,,https://www.hermes.com/uk/en/find-store/united-states/greenwich/hermes-greenwich-Q6XPBFLR/
,Hermes,Q843887,Incheon,KR,,"{'@spider': 'hermes', 'shop': 'clothes'}",,,,37.460191,,,126.440696,Hermès,hermes-3937bd,,+82 32-743-4524,22382,QSA31RDX,,,,,https://www.hermes.com/uk/en/find-store/south-korea/incheon/hermes-incheon-international-airport-t1-east-wing-QSA31RDX/
,Hermes,Q843887,Saitama,JP,,"{'@spider': 'hermes', 'shop': 'clothes'}",,,,35.85899,,,139.656136,Hermès,hermes-3937bd,,+81 48-834-1111,330-0063,R13WZ4XB,,,,,https://www.hermes.com/uk/en/find-store/japan/saitama/hermes-saitama-urawa-isetan-R13WZ4XB/
,Hermes,Q843887,Monte Carlo,FR,monte.carlo@hermes.com,"{'@spider': 'hermes', 'shop': 'clothes'}",,,,43.73819,,,7.427583,Hermès,hermes-3937bd,,+377 93 50 64 89,98000,R15CZ19W,,,,,https://www.hermes.com/uk/en/find-store/france/monte-carlo/hermes-monte-carlo-R15CZ19W/
,Hermes,Q843887,Athens,GR,store.athens@hermes.com,"{'@spider': 'hermes', 'shop': 'clothes'}",,,,37.976607,,,23.7344,Hermès,hermes-3937bd,,+30 21 0323 3715,10564,R4TS0W87,,,,,https://www.hermes.com/uk/en/find-store/greece/athens/hermes-athens-R4TS0W87/
,Hermes,Q843887,NINGBO,CN,,"{'@spider': 'hermes', 'shop': 'clothes'}",,,,29.86621,,,121.61658,Hermès,hermes-3937bd,,+86 574 8185 9180,"315100,",RASPXJEL,,,,,https://www.hermes.com/uk/en/find-store/china/ningbo/ningbo-hankyu-store-RASPXJEL/
,Hermes,Q843887,Lantau Island,HK,,"{'@spider': 'hermes', 'shop': 'clothes'}",,,,22.266498,,,113.941751,Hermès,hermes-3937bd,,+852 2776 7717,,RFDJX6W6,,,,,https://www.hermes.com/uk/en/find-store/hong-kong/lantau-island/hermes-hong-kong-international-airport-RFDJX6W6/
,Hermes,Q843887,East Rutherford,US,,"{'@spider': 'hermes', 'shop': 'clothes'}",,,,40.80945,,,-74.066927,Hermès,hermes-3937bd,,+1 201-487-1111,07073,RFZ00XI3,,,,,https://www.hermes.com/uk/en/find-store/united-states/east-rutherford/hermes-american-dream-RFZ00XI3/
,Hermes,Q843887,Taipei,"Taiwan, China",taipei.sogofuxing@hermes.com,"{'@spider': 'hermes', 'shop': 'clothes'}",,,,25.040893,,,121.543242,Hermès,hermes-3937bd,,+886 2 8772 0160,106,ROR7QDDX,,,,,https://www.hermes.com/uk/en/find-store/taiwan-china/taipei/hermes-taipei-sogo-fuxing-ROR7QDDX/
,Hermes,Q843887,Sydney NSW 2000,AU,sydney@hermes.com,"{'@spider': 'hermes', 'shop': 'clothes'}",,,,-33.869047,,,151.209798,Hermès,hermes-3937bd,,+61 2 9287 3200,2000,RPS6HX75,,,,,https://www.hermes.com/uk/en/find-store/australia/sydney-nsw-2000/hermes-sydney-RPS6HX75/
,Hermes,Q843887,Paris,FR,magasin.georgev@hermes.com,"{'@spider': 'hermes', 'shop': 'clothes'}",,,,48.870412,,,2.301248,Hermès,hermes-3937bd,,+33 1 47 20 48 51,75008,RQMWUFBC,,,,,https://www.hermes.com/uk/en/find-store/france/paris/hermes-paris-george-v-RQMWUFBC/
,Hermes,Q843887,Seoul,KR,magasin.shilla@hermes.com,"{'@spider': 'hermes', 'shop': 'clothes'}",,,,37.557605,,,127.007838,Hermès,hermes-3937bd,,+82 2-2232-6567,04605,RQUAU66H,,,,,https://www.hermes.com/uk/en/find-store/south-korea/seoul/hermes-shilla-hotel-RQUAU66H/
,Hermes,Q843887,Osaka,JP,,"{'@spider': 'hermes', 'shop': 'clothes'}",,,,34.434286,,,135.243714,Hermès,hermes-3937bd,,+81 72-456-6593,549-0001,RUA7DLG0,,,,,https://www.hermes.com/uk/en/find-store/japan/osaka/hermes-osaka-kansai-international-airport-south-wing-RUA7DLG0/
,Hermes,Q843887,Courchevel,FR,hermes.courchevel@gmail.com,"{'@spider': 'hermes', 'shop': 'clothes'}",,,,45.415076,,,6.633576,Hermès,hermes-3937bd,,+33 4 79 01 18 50,73120 ,S19L2Z50,,,,,https://www.hermes.com/uk/en/find-store/france/courchevel/hermes-courchevel-S19L2Z50/
,Hermes,Q843887,Bangkok,TH,magasin.centralembassy@hermes.com,"{'@spider': 'hermes', 'shop': 'clothes'}",,,,13.7439,,,100.546636,Hermès,hermes-3937bd,,+66 (0) 2160 5890-1,10330,S1OPVBS6,,,,,https://www.hermes.com/uk/en/find-store/thailand/bangkok/hermes-central-embassy-bangkok-S1OPVBS6/
,Hermes,Q843887,Istanbul,TR,,"{'@spider': 'hermes', 'shop': 'clothes'}",,,,41.259899,,,28.742733,Hermès,hermes-3937bd,,+90 850 222 5288,34283,S3M81V00,,,,,https://www.hermes.com/uk/en/find-store/turkey/istanbul/hermes-istanbul-airport-S3M81V00/
,Hermes,Q843887,Jeju,KR,magasin.sjeju@hermes.com,"{'@spider': 'hermes', 'shop': 'clothes'}",,,,33.499621,,,126.531188,Hermès,hermes-3937bd,,+82 64-742-8557,63131,S79QM269,,,,,https://www.hermes.com/uk/en/find-store/south-korea/jeju/hermes-jeju-shilla-hotel-duty-free-store-S79QM269/
,Hermes,Q843887,Cotai,MO,macau.fourseason@hermes.com,"{'@spider': 'hermes', 'shop': 'clothes'}",,,,22.146104,,,113.562562,Hermès,hermes-3937bd,,+853 2899 8832,,SE5EZTMV,,,,,https://www.hermes.com/uk/en/find-store/macau/cotai/hermes-four-seasons-macau-SE5EZTMV/
,Hermes,Q843887,New York,US,,"{'@spider': 'hermes', 'shop': 'clothes'}",,,,40.796208,,,-73.673059,Hermès,hermes-3937bd,,+1 516-869-6660,11030,SE9DHHFT,,,,,https://www.hermes.com/uk/en/find-store/united-states/new-york/hermes-manhasset-SE9DHHFT/
,Hermes,Q843887,Palermo,IT,palermo@hermes.it,"{'@spider': 'hermes', 'shop': 'clothes'}",,,,38.128361,,,13.353456,Hermès,hermes-3937bd,,+39 091 609 0307,90139,SG0F0S0W,,,,,https://www.hermes.com/uk/en/find-store/italy/palermo/hermes-palermo-SG0F0S0W/
,Hermes,Q843887,Palo Alto,US,,"{'@spider': 'hermes', 'shop': 'clothes'}",,,,37.443156,,,-122.171529,Hermès,hermes-3937bd,,+1 650-321-2466,94304,SGVC19J0,,,,,https://www.hermes.com/uk/en/find-store/united-states/palo-alto/hermes-palo-alto-SGVC19J0/
,Hermes,Q843887,Madrid,ES,madrid.canalejas@hermes.com,"{'@spider': 'hermes', 'shop': 'clothes'}",,,,40.417309,,,-3.700146,Hermès,hermes-3937bd,,+34 917 87 26 00,28014,SIQ4A5JM,,,,,https://www.hermes.com/uk/en/find-store/spain/madrid/hermes-canalejas-SIQ4A5JM/
,Hermes,Q843887,Roissy-en-France,FR,,"{'@spider': 'hermes', 'shop': 'clothes'}",,,,49.004,,,2.5711,Hermès,hermes-3937bd,,+33 1 48 62 27 61,95700 ,SJM5RYYD,,,,,https://www.hermes.com/uk/en/find-store/france/roissy-en-france/hermes-paris-roissy-cdg-airport-terminal-1-SJM5RYYD/
,Hermes,Q843887,Admiralty,HK,hongkong.pacificplace@hermes.com,"{'@spider': 'hermes', 'shop': 'clothes'}",,,,22.277439,,,114.164579,Hermès,hermes-3937bd,,+852 2522 6229,,SJM9N5H3,,,,,https://www.hermes.com/uk/en/find-store/hong-kong/admiralty/hermes-pacific-place-SJM9N5H3/
,Hermes,Q843887,Berlin,DE,magasin.kadewe@hermes.com,"{'@spider': 'hermes', 'shop': 'clothes'}",,,,52.501752,,,13.323972,Hermès,hermes-3937bd,,+ 49;+49 30 2067830,10789,SS1Q8Z60,,,,,https://www.hermes.com/uk/en/find-store/germany/berlin/hermes-berlin-kadewe-SS1Q8Z60/
,Hermes,Q843887,Roissy-en-France,FR,,"{'@spider': 'hermes', 'shop': 'clothes'}",,,,49.002833,,,2.578161,Hermès,hermes-3937bd,,+33 1 70 03 84 58,95700 ,SSULTB71,,,,,https://www.hermes.com/uk/en/find-store/france/roissy-en-france/hermes-paris-roissy-cdg-airport-terminal-2e-gate-l-SSULTB71/
,Hermes,Q843887,Dubai,dh,,"{'@spider': 'hermes', 'shop': 'clothes'}",,,,25.118107,,,55.200608,Hermès,hermes-3937bd,,+971 4 240 2204,,SZDGC4UR,,,,,https://www.hermes.com/uk/en/find-store/united-arab-emirates/dubai/hermes-parfumeur-SZDGC4UR/
,Hermes,Q843887,Tokyo,JP,,"{'@spider': 'hermes', 'shop': 'clothes'}",,,,35.660403,,,139.69599,Hermès,hermes-3937bd,,+81 3-3477-3111,150-8019,T97I67ID,,,,,https://www.hermes.com/uk/en/find-store/japan/tokyo/hermes-shibuya-tokyu-T97I67ID/
,Hermes,Q843887,Baden Baden,DE,magasin.baden-baden@hermes.com,"{'@spider': 'hermes', 'shop': 'clothes'}",,,,48.761423,,,8.2406,Hermès,hermes-3937bd,,+49 7221 302386,76530,TAJT75WX,,,,,https://www.hermes.com/uk/en/find-store/germany/baden-baden/hermes-baden-baden-TAJT75WX/
,Hermes,Q843887,Taipei,"Taiwan, China",taipei.regent@hermes.com,"{'@spider': 'hermes', 'shop': 'clothes'}",,,,25.054231,,,121.524194,Hermès,hermes-3937bd,,+886 2 2541 7805,104,TB0R4G8B,,,,,https://www.hermes.com/uk/en/find-store/taiwan-china/taipei/hermes-taipei-regent-galleria-TB0R4G8B/
,Hermes,Q843887,Turin,IT,turin@hermes.it,"{'@spider': 'hermes', 'shop': 'clothes'}",,,,45.068562,,,7.682958,Hermès,hermes-3937bd,,+39 011 546971,10121 ,TT86EAOI,,,,,https://www.hermes.com/uk/en/find-store/italy/turin/hermes-turin-TT86EAOI/
,Hermes,Q843887,Aix-en-Provence,FR,,"{'@spider': 'hermes', 'shop': 'clothes'}",,,,43.528012,,,5.451358,Hermès,hermes-3937bd,,+33 4 42 91 35 88,13100,TUVL5813,,,,,https://www.hermes.com/uk/en/find-store/france/aix-en-provence/hermes-aix-en-provence-TUVL5813/
,Hermes,Q843887,Kastrup - Copenhagen,DK,,"{'@spider': 'hermes', 'shop': 'clothes'}",,,,55.620526,,,12.649458,Hermès,hermes-3937bd,,+45 32 31 41 56,2770,TV8NFW9F,,,,,https://www.hermes.com/uk/en/find-store/denmark/kastrup-copenhagen/hermes-copenhagen-kastrup-airport-TV8NFW9F/
,Hermes,Q843887,Osaka,JP,,"{'@spider': 'hermes', 'shop': 'clothes'}",,,,34.7005,,,135.4962,Hermès,hermes-3937bd,,+81 6-6345-1523,530-0001,TWJ2FTB3,,,,,https://www.hermes.com/uk/en/find-store/japan/osaka/hermes-hilton-after-sales-TWJ2FTB3/
,Hermes,Q843887,Tokyo,JP,,"{'@spider': 'hermes', 'shop': 'clothes'}",,,,35.680843,,,139.772914,Hermès,hermes-3937bd,,+81 3-3211-4111,103-8265,U01R8EVF,,,,,https://www.hermes.com/uk/en/find-store/japan/tokyo/hermes-nihombashi-takashimaya-U01R8EVF/
,Hermes,Q843887,Santiago de Chile,CL,magasin.santiago@sa.hermes.com,"{'@spider': 'hermes', 'shop': 'clothes'}",,,,-33.401495,,,-70.595957,Hermès,hermes-3937bd,,+ 56 2 374 15 76,2526,U33JYS3U,,,,,https://www.hermes.com/uk/en/find-store/chile/santiago-de-chile/hermes-santiago-de-chile-U33JYS3U/
,Hermes,Q843887,Tokyo,JP,,"{'@spider': 'hermes', 'shop': 'clothes'}",,,,35.667134,,,139.708563,Hermès,hermes-3937bd,,+81 3-6712-6612,150-0001,U5HJAII4,,,,,https://www.hermes.com/uk/en/find-store/japan/tokyo/hermes-omotesando-U5HJAII4/
,Hermes,Q843887,Ferno Varese,IT,,"{'@spider': 'hermes', 'shop': 'clothes'}",,,,45.630193,,,8.725261,Hermès,hermes-3937bd,,+39 02 7486 7269,21010,U6LJ5M9W,,,,,https://www.hermes.com/uk/en/find-store/italy/ferno-varese/hermes-milan-malpensa-airport-U6LJ5M9W/
,Hermes,Q843887,London,GB,london.bondstreet@hermes.com,"{'@spider': 'hermes', 'shop': 'clothes'}",,,,51.510832,,,-0.143368,Hermès,hermes-3937bd,,+44 20 7499 8856,W1S 2UA,UH1Q6Z4D,,,,,https://www.hermes.com/uk/en/find-store/great-britain/london/hermes-london-bond-street-UH1Q6Z4D/
,Hermes,Q843887,Nice,FR,,"{'@spider': 'hermes', 'shop': 'clothes'}",,,,43.663791,,,7.212856,Hermès,hermes-3937bd,,+33 4 93 21 73 60,06281,UH2DYW1E,,,,,https://www.hermes.com/uk/en/find-store/france/nice/hermes-nice-cote-d-azur-airport-terminal-1-UH2DYW1E/
,Hermes,Q843887,Dubai,dh,,"{'@spider': 'hermes', 'shop': 'clothes'}",,,,25.118323,,,55.200607,Hermès,hermes-3937bd,,+971 4 818 1222,,UHJ6F0ML,,,,,https://www.hermes.com/uk/en/find-store/united-arab-emirates/dubai/hermes-mall-of-the-emirates-UHJ6F0ML/
,Hermes,Q843887,Kampen Sylt,DE,magasin.kampen@hermes.com,"{'@spider': 'hermes', 'shop': 'clothes'}",,,,54.953712,,,8.339612,Hermès,hermes-3937bd,,+49 4651 886290,25999,UMS07WPE,,,,,https://www.hermes.com/uk/en/find-store/germany/kampen-sylt/hermes-kampen-UMS07WPE/
,Hermes,Q843887,Singapore,SG,,"{'@spider': 'hermes', 'shop': 'clothes'}",,,,1.36442,,,103.991531,Hermès,hermes-3937bd,,+65 6241 2136,819642,UV1ZTYTO,,,,,https://www.hermes.com/uk/en/find-store/singapore/singapore/hermes-singapore-changi-airport-t3-UV1ZTYTO/
,Hermes,Q843887,México,MX,magasin.masaryk@sa.hermes.com,"{'@spider': 'hermes', 'shop': 'clothes'}",,,,19.431678,,,-99.199575,Hermès,hermes-3937bd,,+52 55 5282 2118,11560,V0R7RGVN,,,,,https://www.hermes.com/uk/en/find-store/mexico/mexico/hermes-mexico-masaryk-V0R7RGVN/
,Hermes,Q843887,Strasbourg,FR,strasbourg@hermes.com,"{'@spider': 'hermes', 'shop': 'clothes'}",,,,48.584229,,,7.746613,Hermès,hermes-3937bd,,+33 3 88 32 39 91,67000,V0WFGQ3O,,,,,https://www.hermes.com/uk/en/find-store/france/strasbourg/hermes-strasbourg-V0WFGQ3O/
,Hermes,Q843887,Porto Cervo,IT,,"{'@spider': 'hermes', 'shop': 'clothes'}",,,,41.13248,,,9.535316,Hermès,hermes-3937bd,,+39 0789 907074,07021,V30IEFI7,,,,,https://www.hermes.com/uk/en/find-store/italy/porto-cervo/hermes-porto-cervo-V30IEFI7/
,Hermes,Q843887,Oslo,NO,,"{'@spider': 'hermes', 'shop': 'clothes'}",,,,59.912461,,,10.742581,Hermès,hermes-3937bd,,+47 21 06 66 60,0157,V3NSE7S5,,,,,https://www.hermes.com/uk/en/find-store/norway/oslo/hermes-oslo-V3NSE7S5/
,Hermes,Q843887,SHENZHEN,CN,,"{'@spider': 'hermes', 'shop': 'clothes'}",,,,22.516516,,,113.946176,Hermès,hermes-3937bd,,+86 755 2265 5608,"518054,",V6V79S8S,,,,,https://www.hermes.com/uk/en/find-store/china/shenzhen/shenzhen-bay-mixc-store-V6V79S8S/
,Hermes,Q843887,Doha,QA,hermes_service@almana.com,"{'@spider': 'hermes', 'shop': 'clothes'}",,,,25.404928,,,51.521832,Hermès,hermes-3937bd,,+974 4445 8555,,VJ9XC8WK,,,,,https://www.hermes.com/uk/en/find-store/qatar/doha/hermes-doha-place-vendome-VJ9XC8WK/
,Hermes,Q843887,Chadstone,AU,chadstone@hermes.com,"{'@spider': 'hermes', 'shop': 'clothes'}",,,,-37.886607,,,145.081579,Hermès,hermes-3937bd,,+61 3 8564 3300,VIC 3148,VP1C0MYO,,,,,https://www.hermes.com/uk/en/find-store/australia/chadstone/hermes-chadstone-VP1C0MYO/
,Hermes,Q843887,WUHAN,CN,service.china@hermes.com,"{'@spider': 'hermes', 'shop': 'clothes'}",,,,30.5811,,,114.271103,Hermès,hermes-3937bd,,+86 27 8551 0068,"430030,",VPVRFV2S,,,,,https://www.hermes.com/uk/en/find-store/china/wuhan/wuhan-heartland-66-store-VPVRFV2S/
,Hermes,Q843887,Venice,IT,venise@hermes.it,"{'@spider': 'hermes', 'shop': 'clothes'}",,,,45.433319,,,12.336681,Hermès,hermes-3937bd,,+39 041 241 0715,30124,VUZN3AY1,,,,,https://www.hermes.com/uk/en/find-store/italy/venice/hermes-venice-VUZN3AY1/
,Hermes,Q843887,Austin,US,,"{'@spider': 'hermes', 'shop': 'clothes'}",,,,30.250691,,,-97.748418,Hermès,hermes-3937bd,,+1 737-309-0530,78704,VYO3ET45,,,,,https://www.hermes.com/uk/en/find-store/united-states/austin/hermes-austin-VYO3ET45/
,Hermes,Q843887,Chiba,JP,,"{'@spider': 'hermes', 'shop': 'clothes'}",,,,35.763061,,,140.385429,Hermès,hermes-3937bd,,+81 476-33-2115,282-0004,WEGZ7GDY,,,,,https://www.hermes.com/uk/en/find-store/japan/chiba/hermes-tokyo-narita-international-airport-t1-south-WEGZ7GDY/
,Hermes,Q843887,Bellevue,US,,"{'@spider': 'hermes', 'shop': 'clothes'}",,,,47.61646,,,-122.192625,Hermès,hermes-3937bd,,+1 425-467-0500,98004,WML2ZS25,,,,,https://www.hermes.com/uk/en/find-store/united-states/bellevue/hermes-seattle-WML2ZS25/
,Hermes,Q843887,London,GB,,"{'@spider': 'hermes', 'shop': 'clothes'}",,,,51.499291,,,-0.163122,Hermès,hermes-3937bd,,+44 20 7225 5753,SW1X 7XL ,WPE2SNCK,,,,,https://www.hermes.com/uk/en/find-store/great-britain/london/hermes-london-harrods-femme-WPE2SNCK/
,Hermes,Q843887,Osaka,JP,,"{'@spider': 'hermes', 'shop': 'clothes'}",,,,34.700414,,,135.496181,Hermès,hermes-3937bd,,+81 6-6347-7471,530-0001,WRD8ORW8,,,,,https://www.hermes.com/uk/en/find-store/japan/osaka/hermes-hilton-plaza-WRD8ORW8/
,Hermes,Q843887,Seoul,KR,shinsegae@hermes.com,"{'@spider': 'hermes', 'shop': 'clothes'}",,,,37.561105,,,126.98107,Hermès,hermes-3937bd,,+82 2-310-5365,04530,WYXMH6JC,,,,,https://www.hermes.com/uk/en/find-store/south-korea/seoul/hermes-shinsegae-main-WYXMH6JC/
,Hermes,Q843887,Crans sur Sierre,CH,magasin.crans@hermes.ch,"{'@spider': 'hermes', 'shop': 'clothes'}",,,,46.305674,,,7.467679,Hermès,hermes-3937bd,,+41 27 481 03 03,3963,X3EXG9PX,,,,,https://www.hermes.com/uk/en/find-store/switzerland/crans-sur-sierre/hermes-crans-montana-X3EXG9PX/
,Hermes,Q843887,Saint Tropez,FR,st.tropez@hermes.com,"{'@spider': 'hermes', 'shop': 'clothes'}",,,,43.27066,,,6.638487,Hermès,hermes-3937bd,,+33 4 94 97 04 29,83990,X41VW4OV,,,,,https://www.hermes.com/uk/en/find-store/france/saint-tropez/hermes-saint-tropez-X41VW4OV/
,Hermes,Q843887,"Toronto, Ontario",CA,mtoronto@ca.hermes.com,"{'@spider': 'hermes', 'shop': 'clothes'}",,,,43.668958,,,-79.392735,Hermès,hermes-3937bd,,+1 416-968-8626, Canada M5S 3L3,X4JXZJFX,,,,,https://www.hermes.com/uk/en/find-store/canada/toronto-ontario/hermes-toronto-X4JXZJFX/
,Hermes,Q843887,Knokke-Le-Zoute,BE,knokke@hermes.com,"{'@spider': 'hermes', 'shop': 'clothes'}",,,,51.355057,,,3.301506,Hermès,hermes-3937bd,,+32 50 62 71 99,8300,X4OCT823,,,,,https://www.hermes.com/uk/en/find-store/belgium/knokke-le-zoute/hermes-knokke-le-zoute-X4OCT823/
,Hermes,Q843887,Busan,KR,magasin.sbusan@hermes.com,"{'@spider': 'hermes', 'shop': 'clothes'}",,,,35.172534,,,129.14602,Hermès,hermes-3937bd,,+82 51-745-1211,48058,XS0JEB18,,,,,https://www.hermes.com/uk/en/find-store/south-korea/busan/hermes-shinsegae-centum-city-XS0JEB18/
,Hermes,Q843887,SUZHOU,CN,service.china@hermes.com,"{'@spider': 'hermes', 'shop': 'clothes'}",,,,31.310666,,,120.621655,Hermès,hermes-3937bd,,+86 512 6916 2106,"215005,",XT1RE2Y1,,,,,https://www.hermes.com/uk/en/find-store/china/suzhou/suzhou-matro-store-XT1RE2Y1/
,Hermes,Q843887,Fukuoka,JP,,"{'@spider': 'hermes', 'shop': 'clothes'}",,,,33.589399,,,130.397653,Hermès,hermes-3937bd,,+81 92-721-1111,810-8680,XYW26T5S,,,,,https://www.hermes.com/uk/en/find-store/japan/fukuoka/hermes-iwataya-XYW26T5S/
,Hermes,Q843887,Shanghai,CN,DSH_Hermes@cn.dufry.com,"{'@spider': 'hermes', 'shop': 'clothes'}",,,,31.193896,,,121.346348,Hermès,hermes-3937bd,,+86 21 2238 2519,200335,Y132KIX7,,,,,https://www.hermes.com/uk/en/find-store/china/shanghai/hermes-shanghai-hongqiao-airport-t2-Y132KIX7/
,Hermes,Q843887,Troy,US,,"{'@spider': 'hermes', 'shop': 'clothes'}",,,,42.559528,,,-83.184075,Hermès,hermes-3937bd,,+ 947 218 0740,48084,Y1YJNXE2,,,,,https://www.hermes.com/uk/en/find-store/united-states/troy/hermes-troy-Y1YJNXE2/
,Hermes,Q843887,Beirut,LB,customerservice@galoplb.com,"{'@spider': 'hermes', 'shop': 'clothes'}",,,,33.899988,,,35.515156,Hermès,hermes-3937bd,,+961 1 999 710;11,,Y2K3MQRR,,,,,https://www.hermes.com/uk/en/find-store/lebanon/beirut/hermes-beirut-bab-idriss-Y2K3MQRR/
,Hermes,Q843887,Phuket,TH,magasin.phuketfloresta@hermes.com,"{'@spider': 'hermes', 'shop': 'clothes'}",,,,7.89163,,,98.368023,Hermès,hermes-3937bd,,+66 (0) 7663 4697-8,83000,YFL9PYOG,,,,,https://www.hermes.com/uk/en/find-store/thailand/phuket/hermes-central-phuket-floresta-YFL9PYOG/
,Hermes,Q843887,Chengdu,CN,,"{'@spider': 'hermes', 'shop': 'clothes'}",,,,30.567456,,,103.949294,Hermès,hermes-3937bd,,+86 28 8697 3166,641400,YT1J6JSW,,,,,https://www.hermes.com/uk/en/find-store/china/chengdu/hermes-chengdu-tianfu-international-airport-t2-YT1J6JSW/
,Hermes,Q843887,Causeway Bay,HK,hongkong.leegarden@hermes.com,"{'@spider': 'hermes', 'shop': 'clothes'}",,,,22.27852,,,114.185131,Hermès,hermes-3937bd,,+852 2907 2974,,Z1OTUAON,,,,,https://www.hermes.com/uk/en/find-store/hong-kong/causeway-bay/hermes-lee-gardens-Z1OTUAON/
,Hermes,Q843887,Stockholm,SE,hermes.sth@nk.se,"{'@spider': 'hermes', 'shop': 'clothes'}",,,,59.333491,,,18.067695,Hermès,hermes-3937bd,,+46 8 505 027 97,111 47,Z7MD1UV2,,,,,https://www.hermes.com/uk/en/find-store/sweden/stockholm/hermes-stockholm-Z7MD1UV2/
,Hermes,Q843887,San Diego,US,,"{'@spider': 'hermes', 'shop': 'clothes'}",,,,32.871748,,,-117.211987,Hermès,hermes-3937bd,,+1 619-574-9570,92122,ZEZIN8UC,,,,,https://www.hermes.com/uk/en/find-store/united-states/san-diego/hermes-san-diego-ZEZIN8UC/
,Hermes,Q843887,Milan,IT,milano@hermes.it,"{'@spider': 'hermes', 'shop': 'clothes'}",,,,45.468494,,,9.195108,Hermès,hermes-3937bd,,+39 02 7600 3495,20121,ZGAIXB9N,,,,,https://www.hermes.com/uk/en/find-store/italy/milan/hermes-milan-ZGAIXB9N/
,Hermes,Q843887,Prague,CZ,prague@hermes.com,"{'@spider': 'hermes', 'shop': 'clothes'}",,,,50.089134,,,14.419786,Hermès,hermes-3937bd,,+420 224 817 545,11000 ,ZLQGZTYZ,,,,,https://www.hermes.com/uk/en/find-store/czech-republic/prague/hermes-prague-ZLQGZTYZ/
,Hermes,Q843887,Aventura,US,,"{'@spider': 'hermes', 'shop': 'clothes'}",,,,25.957297,,,-80.145069,Hermès,hermes-3937bd,,+1 786-791-2240,33180,ZPYU4XP3,,,,,https://www.hermes.com/uk/en/find-store/united-states/aventura/hermes-aventura-ZPYU4XP3/
,Hermes,Q843887,Seoul,KR,magasin.lworldtower@hermes.com,"{'@spider': 'hermes', 'shop': 'clothes'}",,,,37.521352,,,127.10261,Hermès,hermes-3937bd,,+82 2-3213-3740,05551,ZW7TOXGJ,,,,,https://www.hermes.com/uk/en/find-store/south-korea/seoul/hermes-seoul-lotte-world-tower-duty-free-store-ZW7TOXGJ/
,Hermes,Q843887,Basel,CH,bale@hermes.ch,"{'@spider': 'hermes', 'shop': 'clothes'}",,,,47.55439,,,7.591843,Hermès,hermes-3937bd,,+41 61 283 04 90,4051,ZY69QBLS,,,,,https://www.hermes.com/uk/en/find-store/switzerland/basel/hermes-basel-ZY69QBLS/
